,pollPlaceName,googlePlaceID,dates,county,idTown,lat,lng,address,url
0,BOARD OF ELECTIONS AND REGISTRAR,ChIJFZc46Nty8IgRbZsGMtPyEKs,['05/18/2020 - 06/05/2020 09:00 AM - 05:00 PM'],Appling County,001,31.7778415,-82.35023269999999,"69 TIPPINS ST, BAXLEY, GA 31513","https://www.google.com/maps/search/69+TIPPINS+ST.,+SUITE+205+BAXLEY,+GA,+31513"
1,ATKINSON CO. ELECTION OFFICE,ChIJxfoeqMrT74gR2Fyr7PfziI0,['04/27/2020 - 05/15/2020 09:00 AM - 05:00 PM'],Atkinson County,002,31.2926525,-82.84250870000001,"636 AUSTIN AVENUE E, PEARSON, GA 31642","https://www.google.com/maps/search/636+AUSTIN+AVENUE+E+PEARSON,+GA,+31642"
2,BACON COUNTY ELECTIONS OFFICE,EiIyMzIgVyAxMnRoIFN0LCBBbG1hLCBHQSAzMTUxMCwgVVNBIhsSGQoUChIJuYsEZ80b8IgRoJuF93lm0MEQ6AE,"['05/18/2020 - 05/22/2020 09:00 AM - 05:00 PM', '05/25/2020 - 05/29/2020 09:00 AM - 04:00 PM', '05/30/2020 - 05/30/2020 09:00 AM - 04:00 PM', '06/01/2020 - 06/05/2020 09:00 AM - 05:00 PM']",Bacon County,003,31.5413591,-82.4648836,"232 WEST 12TH STREET, ALMA, GA 31510","https://www.google.com/maps/search/232+WEST+12TH+STREET+ALMA,+GA,+31510"
3,BAKER COUNTY COURTHOUSE,EiMxNjcgQmFrZXIgUGwsIE5ld3RvbiwgR0EgMzk4NzAsIFVTQSIbEhkKFAoSCcEICAdZd-2IETFOCuqN8LZaEKcB,['05/18/2020 - 06/05/2020 08:30 AM - 04:30 PM'],Baker County,004,31.317666,-84.3412951,"167 BAKER PLACE, NEWTON, GA 39870","https://www.google.com/maps/search/167+BAKER+PLACE+NEWTON,+GA,+39870"
4,BALDWIN COUNTY COURTHOUSE,ChIJN2-B-t3H9ogRoNNdFcBSTVE,"['05/18/2020 - 05/22/2020 08:30 AM - 05:00 PM', '05/26/2020 - 05/29/2020 08:30 AM - 05:00 PM', '05/30/2020 - 05/30/2020 09:00 AM - 04:00 PM', '06/01/2020 - 06/05/2020 08:30 AM - 05:00 PM']",Baldwin County,005,33.0815124,-83.2286005,"121 N WILKINSON ST, MILLEDGEVILLE, GA 31061","https://www.google.com/maps/search/121+N+WILKINSON+ST+MILLEDGEVILLE,+GA,+31061"
5,ELECTIONS & REGISTRATION OFFICE,ChIJ3e978gcC9ogRWETXmt5ZYkE,"['05/18/2020 - 06/05/2020 08:00 AM - 05:00 PM', '05/30/2020 - 05/30/2020 09:00 AM - 04:00 PM']",Banks County,006,34.335437,-83.4974345,"226 CANDLER STREET, HOMER, GA 30547","https://www.google.com/maps/search/226+CANDLER+STREET+HOMER,+GA,+30547"
6,BARROW COUNTY ELECTIONS OFFICE,ChIJg54ZrXzn9YgRD-GPSoXyiuE,"['05/18/2020 - 05/22/2020 08:00 AM - 05:00 PM', '05/26/2020 - 05/29/2020 08:00 AM - 05:00 PM', '05/30/2020 - 05/30/2020 09:00 AM - 04:00 PM', '06/01/2020 - 06/05/2020 08:00 AM - 05:00 PM']",Barrow County,007,33.9977319,-83.70936909999999,"233 E. BROAD ST, WINDER, GA 30680","https://www.google.com/maps/search/233+E.+BROAD+ST+WINDER,+GA,+30680"
7,ABSENTEE/ADVANCE,ChIJhe6eWeLp8YgRoivK039J-_U,"['05/18/2020 - 06/05/2020 07:30 AM - 04:00 PM', '05/30/2020 - 05/30/2020 09:00 AM - 04:00 PM']",Ben Hill County,009,31.7089312,-83.25246159999999,"602 S GRANT ST, FITZGERALD, GA 31750","https://www.google.com/maps/search/602+S+GRANT+ST+FITZGERALD,+GA,+31750"
8,COUNTY ADMIN BUILDING,ChIJ2yOny4k97ogRq0LY3krP7zc,"['05/18/2020 - 05/22/2020 08:00 AM - 04:30 PM', '05/25/2020 - 05/29/2020 08:00 AM - 04:30 PM', '05/30/2020 - 05/30/2020 09:00 AM - 04:00 PM', '06/01/2020 - 06/05/2020 09:00 AM - 04:30 PM']",Berrien County,010,31.2084994,-83.2494298,"201 N. DAVIS ST, NASHVILLE, GA 31639","https://www.google.com/maps/search/201+N.+DAVIS+ST.+NASHVILLE,+GA,+31639"
9,MACON BIBB COUNTY BOARD OF ELECTIONS,ChIJ04feGhL884gRm-soH16sE6s,"['05/18/2020 - 06/05/2020 08:30 AM - 05:30 PM', '05/30/2020 - 05/30/2020 09:00 AM - 04:00 PM']",Bibb County,011,32.8114278,-83.66592709999999,"2525 PIO NONO AVE, MACON, GA 31206 - 2829","https://www.google.com/maps/search/2525+PIO+NONO+AVE+MACON,+GA,+31206+-+2829"
10,MACON BIBB COUNTY BOARD OF ELECTIONS,ChIJ04feGhL884gRm-soH16sE6s,['07/20/2020 - 08/07/2020 08:30 AM - 05:30 PM'],Bibb County,011,32.8114278,-83.66592709999999,"2525 PIO NONO AVE, MACON, GA 31206 - 2829","https://www.google.com/maps/search/2525+PIO+NONO+AVE+MACON,+GA,+31206+-+2829"
11,MACON BIBB COUNTY BOARD OF ELECTIONS,ChIJ04feGhL884gRm-soH16sE6s,"['10/12/2020 - 10/30/2020 08:30 AM - 05:30 PM', '10/24/2020 - 10/24/2020 09:00 AM - 04:00 PM']",Bibb County,011,32.8114278,-83.66592709999999,"2525 PIO NONO AVE, MACON, GA 31206 - 2829","https://www.google.com/maps/search/2525+PIO+NONO+AVE+MACON,+GA,+31206+-+2829"
12,VR OFFICE,ChIJe5eIRW9u8YgRKOgYFq9VGYs,"['05/18/2020 - 05/22/2020 08:30 AM - 05:00 PM', '05/26/2020 - 05/29/2020 08:30 AM - 05:00 PM', '05/30/2020 - 05/30/2020 09:00 AM - 04:00 PM', '06/01/2020 - 06/05/2020 08:30 AM - 05:00 PM']",Bleckley County,012,32.3875693,-83.355355,"112 N SECOND STREET, COCRHRAN, GA 31014","https://www.google.com/maps/search/112+N+SECOND+STREET+COCRHRAN,+GA,+31014"
13,VR OFFICE,ChIJe5eIRW9u8YgRKOgYFq9VGYs,"['10/12/2020 - 10/16/2020 08:30 AM - 05:00 PM', '10/19/2020 - 10/23/2020 08:30 AM - 05:00 PM', '10/24/2020 - 10/24/2020 09:00 AM - 04:00 PM', '10/26/2020 - 10/30/2020 08:30 AM - 05:00 PM']",Bleckley County,012,32.3875693,-83.355355,"112 N SECOND STREET, COCRHRAN, GA 31014","https://www.google.com/maps/search/112+N+SECOND+STREET+COCRHRAN,+GA,+31014"
14,MAIN ELECTIONS OFFICE,ChIJ_Vde9qp_7ogRogDm7RcfoFE,['05/18/2020 - 06/05/2020 09:00 AM - 05:00 PM'],Brooks County,014,30.7798113,-83.55219559999999,"610 S HIGHLAND RD, QUITMAN, GA 31643","https://www.google.com/maps/search/610+S+HIGHLAND+RD+QUITMAN,+GA,+31643"
15,BRYAN CO ADMINISTRATION BLDG,ChIJmcJLWQQO-4gRDJyQOoqB6m8,"['05/18/2020 - 05/22/2020 08:00 AM - 05:00 PM', '05/26/2020 - 05/29/2020 08:00 AM - 05:00 PM', '05/30/2020 - 05/30/2020 09:00 AM - 04:00 PM', '06/01/2020 - 06/05/2020 08:00 AM - 05:00 PM']",Bryan County,015,31.8811648,-81.2598689,"66 CAPT MATTHEW FREEMAN, RICHMOND HILL, GA 31324","https://www.google.com/maps/search/66+CAPT+MATTHEW+FREEMAN+RICHMOND+HILL,+GA,+31324"
16,BRYAN COUNTY COMMISSIONERS MEETING ROOM,ChIJZzhWwI1W-ogRg6ESBcYQP68,"['05/18/2020 - 05/22/2020 08:00 AM - 05:00 PM', '05/26/2020 - 05/29/2020 08:00 AM - 05:00 PM', '05/30/2020 - 05/30/2020 09:00 AM - 04:00 PM', '06/01/2020 - 06/05/2020 09:00 AM - 05:00 PM']",Bryan County,015,32.1335816,-81.62117599999999,"42 N. COURTHOUSE ST, PEMBROKE, GA 31321","https://www.google.com/maps/search/42+N.+COURTHOUSE+ST+PEMBROKE,+GA,+31321"
17,BULLOCH COUNTY ANNEX,ChIJ8UCx2lU_-ogRAGCiyfK-xCI,"['05/18/2020 - 05/22/2020 08:00 AM - 05:00 PM', '05/26/2020 - 05/29/2020 08:00 AM - 05:00 PM', '05/30/2020 - 05/30/2020 09:00 AM - 04:00 PM', '06/01/2020 - 06/05/2020 08:00 AM - 05:00 PM']",Bulloch County,016,32.4519474,-81.7835295,"113 NORTH MAIN ST, STATESBORO, GA 30458","https://www.google.com/maps/search/113+NORTH+MAIN+ST+STATESBORO,+GA,+30458"
18,COURT HOUSE BURKE CO.,ChIJRw5-8DTv-YgRK_QWjqU0b98,"['05/18/2020 - 06/05/2020 09:00 AM - 05:00 PM', '05/25/2020 - 05/25/2020 00:00 AM - 00:00 PM', '05/30/2020 - 05/30/2020 09:00 AM - 04:00 PM']",Burke County,017,33.090532,-82.01549,"602 N LIBERTY ST, WAYNESBOR0, GA 30830","https://www.google.com/maps/search/602+N+LIBERTY+ST.+WAYNESBOR0,+GA,+30830"
19,ELECTION OFFICE ADMIN BLDG,ChIJD8ojlipA9IgRUOpaX7DAVmE,"['05/18/2020 - 05/22/2020 08:00 AM - 05:00 PM', '05/26/2020 - 05/29/2020 08:00 AM - 05:00 PM', '05/30/2020 - 05/30/2020 09:00 AM - 04:00 PM', '06/01/2020 - 06/05/2020 08:00 AM - 05:00 PM']",Butts County,018,33.293442,-83.97302069999999,"625 W THIRD ST, JACKSON, GA 30233","https://www.google.com/maps/search/625+W+THIRD+ST+JACKSON,+GA,+30233"
20,REGISTRAR OFFICE,ChIJ7Rc1tIyf8ogRNitskxxBAlI,"['05/18/2020 - 06/05/2020 08:00 AM - 05:00 PM', '05/30/2020 - 05/30/2020 09:00 AM - 04:00 PM']",Calhoun County,019,31.5376621,-84.5996693,"31 COURT ST, MORGAN, GA 39866","https://www.google.com/maps/search/31+COURT+ST+MORGAN,+GA,+39866"
21,CAMDEN COUNTY ANNEX,ChIJU6VKWtoE5YgRNVMU53m7QvU,['05/18/2020 - 06/05/2020 08:00 AM - 05:00 PM'],Camden County,020,30.8063527,-81.6310065,"107 N GROSS RD, KINGSLAND, GA 31548","https://www.google.com/maps/search/107+N+GROSS+RD+KINGSLAND,+GA,+31548"
22,CAMDEN COUNTY ANNEX SATURDAY VOTING,ChIJU6VKWtoE5YgRtSqd1t4cREs,['05/30/2020 - 05/30/2020 09:00 AM - 04:00 PM'],Camden County,020,30.7890356,-81.644302,"107 N GROSS RD, KINGSLAND, GA 31548","https://www.google.com/maps/search/107+N+GROSS+RD+KINGSLAND,+GA,+31548"
23,JACK STRICKLAND COMMUNITY CENTER,ChIJKYtt_Dty-ogRmvtWkl3n2BY,['05/18/2020 - 06/09/2020 09:00 AM - 05:00 PM'],Candler County,021,32.3947348,-82.06839339999999,"621 W PINE STREET, METTER, GA 30439","https://www.google.com/maps/search/621+W+PINE+STREET+METTER,+GA,+30439"
24,RINGGOLD PRECINCT,ChIJ66Zjgd9vYIgRwpvYO4XV9bQ,"['05/18/2020 - 05/22/2020 08:00 AM - 05:00 PM', '05/26/2020 - 05/29/2020 08:00 AM - 05:00 PM', '05/30/2020 - 05/30/2020 09:00 AM - 04:00 PM', '06/01/2020 - 06/05/2020 08:00 AM - 05:00 PM', '06/04/2020 - 06/04/2020 08:00 AM - 07:00 PM']",Catoosa County,023,34.9160681,-85.10651279999999,"5238 EVITT ST, RINGGOLD, GA 30736","https://www.google.com/maps/search/5238+EVITT+ST+RINGGOLD,+GA,+30736"
25,WESTSIDE PRECINCT,ChIJifJRUjFmYIgReNbZYJ5sinE,"['05/18/2020 - 05/22/2020 08:00 AM - 05:00 PM', '05/26/2020 - 05/29/2020 08:00 AM - 05:00 PM', '05/30/2020 - 05/30/2020 09:00 AM - 04:00 PM', '06/01/2020 - 06/05/2020 08:00 AM - 05:00 PM', '06/04/2020 - 06/04/2020 08:00 AM - 07:00 PM']",Catoosa County,023,34.9615427,-85.22515779999999,"3319 LAKEVIEW DR, ROSSVILLE, GA 30741","https://www.google.com/maps/search/3319+LAKEVIEW+DR+ROSSVILLE,+GA,+30741"
26,ELECTIONS OFFICE,ChIJAyi-0Slw5YgRJDFGvaU7qtc,"['05/18/2020 - 05/22/2020 08:30 AM - 05:00 PM', '05/25/2020 - 05/29/2020 08:30 AM - 05:00 PM', '05/30/2020 - 05/30/2020 09:00 AM - 04:00 PM', '06/01/2020 - 06/05/2020 08:30 AM - 05:00 PM']",Charlton County,024,30.831928,-82.004905,"1520 THIRD STREET, FOLKSTON, GA 31537 - 8961","https://www.google.com/maps/search/1520+THIRD+STREET+FOLKSTON,+GA,+31537+-+8961"
27,MAIN OFFICE,ChIJ566Lj7Z1-4gR3uJ2WlB2fLg,"['05/18/2020 - 05/22/2020 08:00 AM - 05:00 PM', '05/25/2020 - 05/29/2020 08:00 AM - 05:00 PM', '05/30/2020 - 05/30/2020 09:00 AM - 04:00 PM', '06/01/2020 - 06/05/2020 08:00 AM - 06:00 PM']",Chatham County,025,32.0044693,-81.1008805,"1117 EISENHOWER DR, SAVANNAH, GA 31406","https://www.google.com/maps/search/1117+EISENHOWER+DR,+STE+E+SAVANNAH,+GA,+31406"
28,POOLER CITY HALL,ChIJozo4njSh-4gRR9z_QmH4XJQ,['06/01/2020 - 06/05/2020 10:00 AM - 04:00 PM'],Chatham County,025,32.1156821,-81.2502054,"100 SW US HIGHWAY 80, POOLER, GA 31322","https://www.google.com/maps/search/100+SW+US+HIGHWAY+80+POOLER,+GA,+31322"
29,UNIFIED GOVT OFFICES OF CUSSETA-CHATTAHOOCHEE COUNTY,ChIJRzOpwiQm84gRBcZysg4DNSE,['05/18/2020 - 06/05/2020 09:00 AM - 05:00 PM'],Chattahoochee County,026,32.3080016,-84.7641763,"215 MCNAUGHTON, CUSSETA, GA 31805","https://www.google.com/maps/search/215+MCNAUGHTON+CUSSETA,+GA,+31805"
30,CHATTOOGA COUNTY REGISTRARS OFFICE,ChIJIyU0PzEhYIgRj89Brg-vPOM,"['05/18/2020 - 05/22/2020 08:30 AM - 05:00 PM', '05/26/2020 - 05/29/2020 08:30 AM - 05:00 PM', '05/30/2020 - 05/30/2020 09:00 AM - 04:00 PM', '06/01/2020 - 06/05/2020 08:30 AM - 05:00 PM']",Chattooga County,027,34.4801287,-85.34841329999999,"10017 COMMERCE ST, SUMMERVILLE, GA 30747","https://www.google.com/maps/search/10017+COMMERCE+ST+SUMMERVILLE,+GA,+30747"
31,CHEROKEE COUNTY BOARD OF ELECTIONS,ChIJHRNuQqRl9YgR4wrvTcIR9o4,"['05/18/2020 - 05/22/2020 08:30 AM - 05:00 PM', '05/26/2020 - 05/29/2020 08:30 AM - 05:00 PM', '05/30/2020 - 05/30/2020 09:00 AM - 04:00 PM', '06/01/2020 - 06/05/2020 08:30 AM - 07:00 PM']",Cherokee County,028,34.2365748,-84.4872694,"400 E MAIN STREET, CANTON, GA 30114","https://www.google.com/maps/search/400+E+MAIN+STREET+CANTON,+GA,+30114"
32,CHEROKEE COUNTY BOARD OF ELECTIONS,ChIJHRNuQqRl9YgR4wrvTcIR9o4,"['07/20/2020 - 07/24/2020 08:30 AM - 05:00 PM', '07/27/2020 - 07/31/2020 08:30 AM - 05:00 PM', '08/03/2020 - 08/07/2020 08:30 AM - 05:00 PM']",Cherokee County,028,34.2365748,-84.4872694,"400 E MAIN STREET, CANTON, GA 30114","https://www.google.com/maps/search/400+E+MAIN+STREET+CANTON,+GA,+30114"
33,SOUTH CHEROKEE ANNEX REC CENTER,ChIJP2zIWANs9YgRVnNJYdFuzK4,"['05/18/2020 - 05/22/2020 08:30 AM - 05:00 PM', '05/26/2020 - 05/29/2020 08:30 AM - 05:00 PM', '05/30/2020 - 05/30/2020 09:00 AM - 04:00 PM', '06/01/2020 - 06/05/2020 08:30 AM - 07:00 PM']",Cherokee County,028,34.1144504,-84.5126392,"7545 MAIN STREET, WOODSTOCK, GA 30188","https://www.google.com/maps/search/7545+MAIN+STREET+WOODSTOCK,+GA,+30188"
34,ACC COORPERATIVE EXTENSION OFFICE,ChIJMeKSbAVz9ogRD13IbPvsFMg,"['06/01/2020 - 06/02/2020 10:30 AM - 05:30 PM', '06/03/2020 - 06/03/2020 10:30 AM - 07:00 PM', '06/04/2020 - 06/05/2020 10:30 AM - 05:30 PM']",Clarke County,029,33.9452336,-83.4738057,"275 CLEVELAND ROAD, BOGART, GA 30622","https://www.google.com/maps/search/275+CLEVELAND+ROAD+BOGART,+GA,+30622"
35,ATHENS REGIONAL  LIBRARY,ChIJkcDKvG1t9ogRc204BIY4084,"['06/01/2020 - 06/02/2020 10:30 AM - 05:30 PM', '06/03/2020 - 06/03/2020 10:30 AM - 07:00 PM', '06/04/2020 - 06/05/2020 10:30 AM - 05:30 PM']",Clarke County,029,33.9449534,-83.40355790000001,"2025 BAXTER STREET, ATNENS, GA 30606","https://www.google.com/maps/search/2025+BAXTER+STREET+ATNENS,+GA,+30606"
36,BOARD OF ELECTIONS OFFICE,ChIJXRey29hs9ogR1YNG04r6j7Q,"['05/18/2020 - 05/29/2020 08:00 AM - 05:00 PM', '05/30/2020 - 05/30/2020 09:00 AM - 04:00 PM', '05/31/2020 - 05/31/2020 12:00 PM - 03:00 PM', '06/01/2020 - 06/02/2020 08:00 AM - 05:30 PM', '06/03/2020 - 06/03/2020 08:00 AM - 07:00 PM', '06/04/2020 - 06/05/2020 08:00 AM - 05:30 PM']",Clarke County,029,33.9594279,-83.3767269,"155 E. WASHINGTON STREET, ATHENS, GA 30601","https://www.google.com/maps/search/155+E.+WASHINGTON+STREET+ATHENS,+GA,+30601"
37,MIRIAM MOORE COMMUNITY CENTER,ChIJvy2l47hs9ogR1GBFTVHWm5c,"['06/01/2020 - 06/02/2020 10:30 AM - 05:30 PM', '06/03/2020 - 06/03/2020 10:30 AM - 07:00 PM', '06/04/2020 - 06/05/2020 10:30 AM - 05:30 PM']",Clarke County,029,33.959218,-83.35511199999999,"410 MCKINLEY DRIVE, ATHENS, GA 30605","https://www.google.com/maps/search/410+MCKINLEY+DRIVE+ATHENS,+GA,+30605"
38,CLAY COUNTY COURTHOUSE,ChIJZz5jZ8FWjYgRcTybNtDptTw,['04/27/2020 - 05/15/2020 09:00 AM - 05:00 PM'],Clay County,030,31.605324,-85.0488835,"210 S WASHINGTON ST, FORT GAINES, GA 39851","https://www.google.com/maps/search/210+S+WASHINGTON+ST+FORT+GAINES,+GA,+39851"
39,REGISTRARS OFFICE,ChIJZz5jZ8FWjYgRcTybNtDptTw,"['05/18/2020 - 06/05/2020 08:30 AM - 04:00 PM', '05/30/2020 - 05/30/2020 09:00 AM - 04:00 PM']",Clay County,030,31.605324,-85.0488835,"210 SOUTH WASHINGTON, FORT GAINES, GA 39851","https://www.google.com/maps/search/210+SOUTH+WASHINGTON+FORT+GAINES,+GA,+39851"
40,CARL RHODENIZER RECREATION CENTER,ChIJwXikFlr_9IgRCXg2XHdBo8g,"['05/18/2020 - 05/22/2020 08:00 AM - 05:00 PM', '05/26/2020 - 05/29/2020 08:00 AM - 05:00 PM', '05/30/2020 - 05/30/2020 09:00 AM - 04:00 PM', '05/31/2020 - 05/31/2020 12:00 PM - 05:00 PM', '06/01/2020 - 06/05/2020 08:00 AM - 07:00 PM']",Clayton County,031,33.5893002,-84.27672799999999,"3499 REX ROAD, REX, GA 30273","https://www.google.com/maps/search/3499+REX+ROAD+REX,+GA,+30273"
41,ELECTIONS AND REGISTRATION,ChIJgU5HJYj59IgRlEXE_mUIChU,"['05/18/2020 - 05/22/2020 08:00 AM - 05:00 PM', '05/26/2020 - 05/29/2020 08:00 AM - 05:00 PM', '05/30/2020 - 05/30/2020 09:00 AM - 04:00 PM', '05/31/2020 - 05/31/2020 12:00 PM - 05:00 PM', '06/01/2020 - 06/05/2020 08:00 AM - 07:00 PM']",Clayton County,031,33.5204667,-84.352998,"121 S. MCDONOUGH STREET, JONESBORO, GA 30236","https://www.google.com/maps/search/121+S.+MCDONOUGH+STREET+JONESBORO,+GA,+30236"
42,LEE HEADQUARTERS LIBRARY,ChIJg3OY59z79IgRAN95xXSOVBg,"['05/18/2020 - 05/22/2020 08:00 AM - 05:00 PM', '05/26/2020 - 05/29/2020 08:00 AM - 05:00 PM', '05/30/2020 - 05/30/2020 09:00 AM - 04:00 PM', '05/31/2020 - 05/31/2020 12:00 PM - 05:00 PM', '06/01/2020 - 06/05/2020 08:00 AM - 07:00 PM']",Clayton County,031,33.5532526,-84.36332349999999,"865 BATTLE CREEK RD, JONESBORO, GA 30236","https://www.google.com/maps/search/865+BATTLE+CREEK+RD+JONESBORO,+GA,+30236"
43,MORROW MUNICIPAL COMPLEX,ChIJYwQcgbH-9IgRxs-GF2DirYY,"['05/18/2020 - 05/22/2020 08:00 AM - 05:00 PM', '05/26/2020 - 05/29/2020 08:00 AM - 05:00 PM', '05/30/2020 - 05/30/2020 09:00 AM - 04:00 PM', '05/31/2020 - 05/31/2020 12:00 PM - 05:00 PM', '06/01/2020 - 06/05/2020 08:00 AM - 07:00 PM']",Clayton County,031,33.5836382,-84.3413051,"1500 MORROW ROAD, MORROW, GA 30260","https://www.google.com/maps/search/1500+MORROW+ROAD+MORROW,+GA,+30260"
44,SOUTH CLAYTON RECREATION CENTER,ChIJkzaNFR_39IgRZ6L0K55tm7U,"['05/18/2020 - 05/22/2020 08:00 AM - 05:00 PM', '05/26/2020 - 05/29/2020 08:00 AM - 05:00 PM', '05/30/2020 - 05/30/2020 09:00 AM - 04:00 PM', '05/31/2020 - 05/31/2020 12:00 PM - 05:00 PM', '06/01/2020 - 06/05/2020 08:00 AM - 07:00 PM']",Clayton County,031,33.4476278,-84.3316079,"1837 MCDONOUGH ROAD, HAMPTON, GA 30228","https://www.google.com/maps/search/1837+MCDONOUGH+ROAD+HAMPTON,+GA,+30228"
45,VIRGINIA BURTON GRAY RECREATION CTR,ChIJx7IUI6389IgRbOJenQ-ccdo,"['05/18/2020 - 05/22/2020 08:00 AM - 05:00 PM', '05/26/2020 - 05/29/2020 08:00 AM - 05:00 PM', '05/30/2020 - 05/30/2020 09:00 AM - 04:00 PM', '05/31/2020 - 05/31/2020 12:00 PM - 05:00 PM', '06/01/2020 - 06/05/2020 08:00 AM - 07:00 PM']",Clayton County,031,33.5912927,-84.43720560000001,"1475 EAST FAYETTEVILLE ROAD, RIVERDALE, GA 30274","https://www.google.com/maps/search/1475+EAST+FAYETTEVILLE+ROAD+RIVERDALE,+GA,+30274"
46,COURTHOUSE,ChIJ4_w__eu374gRfiT6wDpcecM,['05/18/2020 - 06/05/2020 09:00 AM - 05:00 PM'],Clinch County,032,31.0369441,-82.7485591,"25 COURT SQUARE, HOMERVILLE, GA 31634","https://www.google.com/maps/search/25+COURT+SQUARE+HOMERVILLE,+GA,+31634"
47,1 MAIN OFFICE,ChIJ9fQQZNAV9YgRwmbkhT8SY_E,"['05/18/2020 - 05/22/2020 08:00 AM - 06:00 PM', '05/26/2020 - 05/29/2020 08:00 AM - 06:00 PM', '05/30/2020 - 05/30/2020 09:00 AM - 04:00 PM', '06/01/2020 - 06/05/2020 08:00 AM - 06:00 PM']",Cobb County,033,33.9536152,-84.5738877,"736 WHITLOCK AVE NW, MARIETTA, GA 30064 - 4663","https://www.google.com/maps/search/736+WHITLOCK+AVE+NW+MARIETTA,+GA,+30064+-+4663"
48,2 WEST- WEST COBB SENIOR CENTER,ChIJc6nc1vs79YgR9PMT9FOFOxY,['06/01/2020 - 06/05/2020 08:00 AM - 06:00 PM'],Cobb County,033,33.9422621,-84.6952417,"4915 DALLAS HIGHWAY, POWDER SPRINGS, GA 30127","https://www.google.com/maps/search/4915+DALLAS+HIGHWAY+POWDER+SPRINGS,+GA,+30127"
49,3 NORTH- NORTH COBB SENIOR CENTER,ChIJjXFLuJBA9YgRXaT0k2mVsC0,['06/01/2020 - 06/05/2020 08:00 AM - 06:00 PM'],Cobb County,033,34.0499644,-84.6628527,"3900 S. MAIN STREET, ACWORTH, GA 30101","https://www.google.com/maps/search/3900+S.+MAIN+STREET+ACWORTH,+GA,+30101"
50,4 SOUTH- RIVERSIDE EPICENTER,ChIJvcdSmS4Z9YgRP7jKDyKkG9o,['06/01/2020 - 06/05/2020 08:00 AM - 06:00 PM'],Cobb County,033,33.7719694,-84.5573057,"135 RIVERSIDE PARKWAY, AUSTELL, GA 30168","https://www.google.com/maps/search/135+RIVERSIDE+PARKWAY+AUSTELL,+GA,+30168"
51,5 EAST- EAST COBB GOVT SVC CENTER,ChIJrx8sgpMN9YgRZ2FRoNH8A3M,['06/01/2020 - 06/05/2020 08:00 AM - 06:00 PM'],Cobb County,033,33.9628857,-84.4229117,"4400 LOWER ROSWELL RD, MARIETTA, GA 30068 - 4233","https://www.google.com/maps/search/4400+LOWER+ROSWELL+RD+MARIETTA,+GA,+30068+-+4233"
52,COURTHOUSE ANNEX,ChIJC5jxaero7YgR1nOR-Nhr710,"['05/18/2020 - 05/22/2020 11:00 AM - 05:00 PM', '05/26/2020 - 05/29/2020 11:00 AM - 05:00 PM', '05/30/2020 - 05/30/2020 09:00 AM - 04:00 PM', '06/01/2020 - 06/05/2020 08:00 AM - 05:00 PM']",Colquitt County,035,31.1802509,-83.7872064,"101 EAST CENTRAL AVE, MOULTRIE, GA 31768","https://www.google.com/maps/search/101+EAST+CENTRAL+AVE+MOULTRIE,+GA,+31768"
53,"COLUMBIA COUNTY BOARD OF ELECTIONS, BUILDING G3",ChIJY9y2U6zU-YgRhU1ywYaqQXA,"['05/18/2020 - 06/05/2020 08:00 AM - 05:00 PM', '05/30/2020 - 05/30/2020 09:00 AM - 04:00 PM']",Columbia County,036,33.543379,-82.13576839999999,"610 RONALD REAGAN DRIVE, EVANS, GA 30809","https://www.google.com/maps/search/610+RONALD+REAGAN+DRIVE+EVANS,+GA,+30809"
54,COOK COUNTY ADMINISTRATION BUILDING,ChIJ-VYr0J4S7ogRwObA0SGd514,"['05/18/2020 - 05/22/2020 08:30 AM - 04:30 PM', '05/26/2020 - 05/29/2020 08:30 AM - 04:30 PM', '05/30/2020 - 05/30/2020 09:00 AM - 04:00 PM', '06/01/2020 - 06/05/2020 08:30 AM - 04:30 PM']",Cook County,037,31.1210889,-83.41678139999999,"1200 S. HUTCHINSON AVE, ADEL, GA 31620","https://www.google.com/maps/search/1200+S.+HUTCHINSON+AVE.+ADEL,+GA,+31620"
55,EAST SIDE ADV. VOTING SITE AT CENTRAL COMPLEX,Eik2NSBMaXRlcmFyeSBMbiwgU2hhcnBzYnVyZywgR0EgMzAyNzcsIFVTQSIaEhgKFAoSCQEjtYA-wfSIEe4QUpVR9WdWEEE,"['05/18/2020 - 05/22/2020 08:30 AM - 04:30 PM', '05/26/2020 - 05/29/2020 08:30 AM - 04:30 PM', '05/30/2020 - 05/30/2020 09:00 AM - 04:00 PM', '06/01/2020 - 06/05/2020 08:30 AM - 04:30 PM']",Coweta County,038,33.3862782,-84.6712689,"65 LITERARY LANE, NEWNAN, GA 30265","https://www.google.com/maps/search/65+LITERARY+LANE+NEWNAN,+GA,+30265"
56,VOTER REGISTRATION OFFICE,ChIJFQX79PXI9IgRNiDLNETwUpE,"['05/18/2020 - 05/22/2020 08:30 AM - 04:30 PM', '05/26/2020 - 05/29/2020 08:00 AM - 04:30 PM', '05/30/2020 - 05/30/2020 09:00 AM - 04:00 PM', '06/01/2020 - 06/05/2020 08:30 AM - 04:30 PM']",Coweta County,038,33.3745719,-84.7982668,"22 EAST BROAD STREET, NEWNAN, GA 30263","https://www.google.com/maps/search/22+EAST+BROAD+STREET+NEWNAN,+GA,+30263"
57,BOARD OF ELECTIONS OFFICE,ChIJFT4JcYGR84gRYNJZLPPt_2s,['05/18/2020 - 06/05/2020 09:00 AM - 05:00 PM'],Crawford County,039,32.7146375,-84.0211479,"640 GA HWY 128, ROBERTA, GA 31078","https://www.google.com/maps/search/640+GA+HWY+128+ROBERTA,+GA,+31078"
58,GOVERNMENT CENTER,ChIJPfeZoiI78ogR14oWITb7hHQ,"['05/18/2020 - 06/05/2020 08:00 AM - 06:00 PM', '05/30/2020 - 05/30/2020 09:00 AM - 04:00 PM']",Crisp County,040,31.9672219,-83.7831842,"210 SOUTH 7TH STREET, CORDELE, GA 31015","https://www.google.com/maps/search/210+SOUTH+7TH+STREET+CORDELE,+GA,+31015"
59,ADMIN.BLDG CMM/ROOM,ChIJJdDClK1OYIgR0LTWqrRC2Tc,"['05/18/2020 - 05/21/2020 08:00 AM - 05:00 PM', '05/22/2020 - 05/22/2020 08:00 AM - 02:00 PM', '05/26/2020 - 05/28/2020 08:00 AM - 05:00 PM', '05/29/2020 - 05/29/2020 08:00 AM - 02:00 PM', '05/30/2020 - 05/30/2020 09:00 AM - 04:00 PM', '06/01/2020 - 06/04/2020 08:00 AM - 05:00 PM', '06/05/2020 - 06/05/2020 08:00 AM - 02:00 PM']",Dade County,041,34.8720856,-85.5107689,"71 CASE AVE, TRENTON, GA 30752","https://www.google.com/maps/search/71+CASE+AVE+TRENTON,+GA,+30752"
60,DAWSON CO ELECT & REG OFFICE,ChIJAUMPeOd8X4gR4gFTlG3zR9s,"['05/18/2020 - 05/22/2020 08:00 AM - 05:00 PM', '05/26/2020 - 05/29/2020 08:00 AM - 05:00 PM', '05/30/2020 - 05/30/2020 09:00 AM - 04:00 PM', '06/01/2020 - 06/05/2020 08:00 AM - 05:00 PM']",Dawson County,042,34.4201781,-84.1230221,"96 ACADEMY AVENUE, DAWSONVILLE, GA 30534","https://www.google.com/maps/search/96+ACADEMY+AVENUE+DAWSONVILLE,+GA,+30534"
61,COURTHOUSE ANNEX,ChIJtWggs-8Y7YgRtj0jEQtn0L8,"['05/18/2020 - 05/22/2020 08:00 AM - 06:00 PM', '05/26/2020 - 05/29/2020 08:00 AM - 06:00 PM', '05/30/2020 - 05/30/2020 09:00 AM - 04:00 PM', '06/01/2020 - 06/05/2020 08:00 AM - 06:00 PM']",Decatur County,043,30.90668969999999,-84.5771689,"122 W. WATER ST, BAINBRIDGE, GA 39817","https://www.google.com/maps/search/122+W.+WATER+ST.+BAINBRIDGE,+GA,+39817"
62,AV- FIRST BAPTIST CHURCH DECATUR,ChIJeVSQWxYH9YgRQ3vx7KQRdg0,['06/01/2020 - 06/05/2020 08:00 AM - 06:00 PM'],DeKalb County,044,33.778788,-84.297573,"308 CLAIREMONT AVENUE, DECATUR, GA 30030","https://www.google.com/maps/search/308+CLAIREMONT+AVENUE+DECATUR,+GA,+30030"
63,AV-BESSIE BRANHAM RECREATION CENTER,ChIJt8IoLi0B9YgRkpIOda8ILLA,['06/01/2020 - 06/05/2020 09:00 AM - 05:00 PM'],DeKalb County,044,33.7549355,-84.32063950000001,"2051 DELANO DRIVE SE, ATLANTA, GA 30317","https://www.google.com/maps/search/2051+DELANO+DRIVE+SE+ATLANTA,+GA,+30317"
64,AV-BRIARWOOD RECREATION CENTER,ChIJlSbZsJ4I9YgR16ec4xz2mek,['06/01/2020 - 06/05/2020 08:00 AM - 06:00 PM'],DeKalb County,044,33.8496823,-84.3286609,"2235 BRIARWOOD WAY NE, BROOKHAVEN, GA 30319","https://www.google.com/maps/search/2235+BRIARWOOD+WAY+NE+BROOKHAVEN,+GA,+30319"
65,AV-DUNWOODY LIBRARY,ChIJNeiDSt0L9YgRWHwWL540OR8,"['05/18/2020 - 05/22/2020 08:00 AM - 06:00 PM', '05/23/2020 - 05/23/2020 09:00 AM - 04:00 PM', '05/26/2020 - 05/29/2020 08:00 AM - 06:00 PM', '05/30/2020 - 05/30/2020 09:00 AM - 04:00 PM', '05/31/2020 - 05/31/2020 12:00 PM - 04:00 PM', '06/01/2020 - 06/05/2020 08:00 AM - 06:00 PM']",DeKalb County,044,33.9446855,-84.3319777,"5339 CHAMBLEE DUNWOODY RD, DUNWOODY, GA 30338","https://www.google.com/maps/search/5339+CHAMBLEE+DUNWOODY+RD+DUNWOODY,+GA,+30338"
66,AV-HOUSE OF HOPE ATLANTA,ChIJu4_yO-eq9YgRgw429dpszP8,['06/01/2020 - 06/05/2020 08:00 AM - 06:00 PM'],DeKalb County,044,33.68638019999999,-84.2339803,"4650 FLAT SHOALS PARKWAY, DECATUR, GA 30034","https://www.google.com/maps/search/4650+FLAT+SHOALS+PARKWAY+DECATUR,+GA,+30034"
67,AV-MEMORIAL 1,ChIJn2WMG7-p9YgRJYeGlTaeXx0,"['05/18/2020 - 05/22/2020 08:00 AM - 06:00 PM', '05/23/2020 - 05/23/2020 09:00 AM - 04:00 PM', '05/26/2020 - 05/29/2020 08:00 AM - 06:00 PM', '05/30/2020 - 05/30/2020 09:00 AM - 04:00 PM', '05/31/2020 - 05/31/2020 12:00 PM - 04:00 PM', '06/01/2020 - 06/05/2020 08:00 AM - 06:00 PM']",DeKalb County,044,33.7780804,-84.246648,"4380 MEMORIAL DRIVE, DECATUR, GA 30032","https://www.google.com/maps/search/4380+MEMORIAL+DRIVE+DECATUR,+GA,+30032"
68,AV-MEMORIAL 2,ChIJn2WMG7-p9YgRJYeGlTaeXx0,"['05/18/2020 - 05/22/2020 08:00 AM - 06:00 PM', '05/23/2020 - 05/23/2020 09:00 AM - 04:00 PM', '05/26/2020 - 05/29/2020 08:00 AM - 06:00 PM', '05/30/2020 - 05/30/2020 09:00 AM - 04:00 PM', '05/31/2020 - 05/31/2020 12:00 PM - 04:00 PM', '06/01/2020 - 06/05/2020 08:00 AM - 06:00 PM']",DeKalb County,044,33.7780804,-84.246648,"4380 MEMORIAL DR, DECATUR, GA 30032","https://www.google.com/maps/search/4380+MEMORIAL+DR+DECATUR,+GA,+30032"
69,AV-REID H. COFER LIBRARY,ChIJYz3nJDGm9YgRPtMey7OqyRs,"['05/23/2020 - 05/23/2020 09:00 AM - 04:00 PM', '05/26/2020 - 05/29/2020 08:00 AM - 06:00 PM', '05/30/2020 - 05/30/2020 09:00 AM - 04:00 PM', '06/01/2020 - 06/05/2020 08:00 AM - 06:00 PM']",DeKalb County,044,33.8557244,-84.2205517,"5234 LAVISTA RD, TUCKER, GA 30084","https://www.google.com/maps/search/5234+LAVISTA+RD+TUCKER,+GA,+30084"
70,AV-SOUTH DEKALB,ChIJj71haIAA9YgRy36SwFtJwmU,"['05/18/2020 - 05/22/2020 08:00 AM - 06:00 PM', '05/23/2020 - 05/23/2020 09:00 AM - 04:00 PM', '05/26/2020 - 05/29/2020 08:00 AM - 06:00 PM', '05/30/2020 - 05/30/2020 09:00 AM - 04:00 PM', '05/31/2020 - 05/31/2020 12:00 PM - 04:00 PM', '06/01/2020 - 06/05/2020 08:00 AM - 06:00 PM']",DeKalb County,044,33.708728,-84.2748135,"2801 CANDLER ROAD, DECATUR, GA 30034","https://www.google.com/maps/search/2801+CANDLER+ROAD+DECATUR,+GA,+30034"
71,AV-STONECREST LIBRARY,ChIJO7hubnqt9YgRyFOjv5ZUC_A,"['05/23/2020 - 05/23/2020 09:00 AM - 04:00 PM', '05/26/2020 - 05/29/2020 08:00 AM - 06:00 PM', '05/30/2020 - 05/30/2020 09:00 AM - 04:00 PM', '06/01/2020 - 06/05/2020 08:00 AM - 06:00 PM']",DeKalb County,044,33.694361,-84.1097277,"3123 KLONDIKE RD, LITHONIA, GA 30038","https://www.google.com/maps/search/3123+KLONDIKE+RD+LITHONIA,+GA,+30038"
72,DODGE COUNTY REGISTRARS OFFICE,ChIJRXCrrSQK8YgRcLrfWao27yo,"['05/18/2020 - 05/22/2020 09:00 AM - 05:00 PM', '05/26/2020 - 05/29/2020 09:00 AM - 05:00 PM', '05/30/2020 - 05/30/2020 09:00 AM - 04:00 PM', '06/01/2020 - 06/05/2020 09:00 AM - 05:00 PM']",Dodge County,045,32.2009748,-83.1754335,"5016 COURTHOUSE CIRCLE, EASTMAN, GA 31023","https://www.google.com/maps/search/5016+COURTHOUSE+CIRCLE,+SUITE+B+EASTMAN,+GA,+31023"
73,VIENNA VOTING PRECINCT,ChIJbQXKdewx8ogRjzi5BH44dv8,"['05/18/2020 - 05/29/2020 08:00 AM - 05:00 PM', '05/30/2020 - 05/30/2020 09:00 AM - 04:00 PM', '06/01/2020 - 06/05/2020 08:00 AM - 05:00 PM']",Dooly County,046,32.0959896,-83.77990810000001,"402 HAWKINSVILLE ROAD, VIENNA, GA 31092","https://www.google.com/maps/search/402+HAWKINSVILLE+ROAD+VIENNA,+GA,+31092"
74,CANDY ROOM,ChIJWyXolXt58ogRPej80W3cSt8,"['05/18/2020 - 05/22/2020 08:30 AM - 05:00 PM', '05/25/2020 - 05/29/2020 08:30 AM - 05:00 PM', '05/30/2020 - 05/30/2020 09:00 AM - 04:00 PM', '06/01/2020 - 06/05/2020 08:30 AM - 05:00 PM']",Dougherty County,047,31.5789023,-84.1503563,"125 PINE AVE, ALBANY, GA 31701","https://www.google.com/maps/search/125+PINE+AVE+ALBANY,+GA,+31701"
75,0730-OLD COURTHOUSE,ChIJgyZh90Am9YgRD6FHvc-bkME,['05/26/2020 - 06/05/2020 09:00 AM - 05:00 PM'],Douglas County,048,33.749083,-84.750507,"6754 CHURCH STREET, DOUGLASVILLE, GA 30134","https://www.google.com/maps/search/6754+CHURCH+STREET+DOUGLASVILLE,+GA,+30134"
76,0785-BOUNDARY WATERS AQUATIC CENTER,ChIJ-08HVGXf9IgRq6yA3f0MlhA,['05/26/2020 - 06/05/2020 09:00 AM - 05:00 PM'],Douglas County,048,33.669201,-84.6603903,"5000 GEORGIA HIGHWAY 92, DOUGLASVILLE, GA 30135","https://www.google.com/maps/search/5000+GEORGIA+HIGHWAY+92+DOUGLASVILLE,+GA,+30135"
77,1260- DOG RIVER LIBRARY,ChIJBUMl0vDW9IgRx6PUjf0LU1E,['05/26/2020 - 06/05/2020 09:00 AM - 05:00 PM'],Douglas County,048,33.6379688,-84.8275846,"6100 GA. HIGHWAY 5, DOUGLASVILLE, GA 30135","https://www.google.com/maps/search/6100+GA.+HIGHWAY+5+DOUGLASVILLE,+GA,+30135"
78,1276-DEER LICK PARK REC. CTR.,ChIJAeFMADYh9YgRKfym339KeH0,['05/26/2020 - 06/05/2020 09:00 AM - 05:00 PM'],Douglas County,048,33.7492714,-84.6852474,"2105 MACK RD, DOUGLASVILLE, GA 30135","https://www.google.com/maps/search/2105+MACK+RD+DOUGLASVILLE,+GA,+30135"
79,DOUGLAS COUNTY COURTHOUSE,ChIJr-pkMfYm9YgR3kFQ6zBSjog,['05/18/2020 - 06/05/2020 09:00 AM - 05:00 PM'],Douglas County,048,33.7433513,-84.7306584,"8700 HOSPITAL DR, DOUGLASVILLE, GA 30134","https://www.google.com/maps/search/8700+HOSPITAL+DR+DOUGLASVILLE,+GA,+30134"
80,WOODIE FITE,ChIJm49au_Ym9YgREFNupK9AQQY,['05/26/2020 - 05/29/2020 09:00 AM - 05:00 PM'],Douglas County,048,33.7453685,-84.7270997,"8750 DORRIS RD, DOUGLASVILLE, GA 30134","https://www.google.com/maps/search/8750+DORRIS+RD+DOUGLASVILLE,+GA,+30134"
81,REGISTRAR'S OFFICE,ChIJx4TIRs5S7YgRU1k6lFgPfOY,"['05/18/2020 - 06/05/2020 08:30 AM - 04:30 PM', '05/30/2020 - 05/30/2020 09:00 AM - 04:00 PM']",Early County,049,31.3784353,-84.93325879999999,"17 MCDONALD AVE, BLAKELY, GA 39823","https://www.google.com/maps/search/17+MCDONALD+AVE.+BLAKELY,+GA,+39823"
82,COURTHOUSE,ChIJVR-XfYP47ogRKK7c2srs1-k,"['04/27/2020 - 05/01/2020 07:00 AM - 07:00 PM', '05/04/2020 - 05/08/2020 07:00 AM - 07:00 PM', '05/09/2020 - 05/09/2020 09:00 AM - 04:00 PM', '05/11/2020 - 05/15/2020 07:00 AM - 07:00 PM']",Echols County,050,30.7030084,-83.0277878,"110 HWY 94 E, STATENVILLE, GA 31648","https://www.google.com/maps/search/110+HWY+94+E+STATENVILLE,+GA,+31648"
83,EFFINGHAM CO. BOARD OF ELECTIONS AND REGISTRATION,ChIJbSII57W5-4gRCNbwX_ABzXo,"['05/18/2020 - 05/22/2020 08:30 AM - 05:00 PM', '05/26/2020 - 05/29/2020 08:30 AM - 05:00 PM', '05/30/2020 - 05/30/2020 09:00 AM - 04:00 PM', '06/01/2020 - 06/05/2020 08:30 AM - 05:00 PM']",Effingham County,051,32.3684649,-81.3166038,"284 GA HIGHWAY 119 S, SPRINGFIELD, GA 31329","https://www.google.com/maps/search/284+GA+HIGHWAY+119+S.+SPRINGFIELD,+GA,+31329"
84,ELBERT COUNTY ROCK GYM,ChIJ7b3z2XbN94gRjwAGIpFC_hE,['05/18/2020 - 06/05/2020 08:00 AM - 05:00 PM'],Elbert County,052,34.1099645,-82.8687314,"45 FOREST AVE, ELBERTON, GA 30635","https://www.google.com/maps/search/45+FOREST+AVE.+ELBERTON,+GA,+30635"
85,COURTHOUSE ANNEX,ChIJMTrpruFg-ogR6PltrEjPasM,"['05/18/2020 - 05/22/2020 08:00 AM - 05:00 PM', '05/25/2020 - 05/29/2020 08:00 AM - 05:00 PM', '05/30/2020 - 05/30/2020 09:00 AM - 04:00 PM', '06/01/2020 - 06/05/2020 08:00 AM - 05:00 PM']",Evans County,054,32.1618096,-81.90749009999999,"201 FREEMAN ST, CLAXTON, GA 30417","https://www.google.com/maps/search/201+FREEMAN+ST+CLAXTON,+GA,+30417"
86,ELECTION OFFICE,Ei00MDAgVyBNYWluIFN0ICMzMDEsIEJsdWUgUmlkZ2UsIEdBIDMwNTEzLCBVU0EiHxodChYKFAoSCVXDasJYpl-IEdBZaoKGev1HEgMzMDE,"['05/18/2020 - 05/22/2020 09:00 AM - 05:00 PM', '05/26/2020 - 05/29/2020 09:00 AM - 05:00 PM', '05/30/2020 - 05/30/2020 09:00 AM - 04:00 PM', '06/01/2020 - 06/05/2020 09:00 AM - 05:00 PM']",Fannin County,055,34.8644888,-84.3266764,"400 WEST MAIN ST. SUITE 301, BLUE RIDGE, GA 30513","https://www.google.com/maps/search/400+WEST+MAIN+ST.+SUITE+301+BLUE+RIDGE,+GA,+30513"
87,FAYETTE COUNTY ELECTIONS OFFICE,ChIJ3Xy84jTu9IgRf0h4TAmP0QA,"['05/18/2020 - 05/22/2020 08:00 AM - 05:00 PM', '05/25/2020 - 05/29/2020 08:00 AM - 05:00 PM', '05/30/2020 - 05/30/2020 09:00 AM - 04:00 PM', '06/01/2020 - 06/05/2020 07:00 AM - 05:00 PM']",Fayette County,056,33.4470043,-84.45705579999999,"140 STONEWALL AVENUE WEST, FAYETTEVILLE, GA 30214","https://www.google.com/maps/search/140+STONEWALL+AVENUE+WEST,+STE+209+FAYETTEVILLE,+GA,+30214"
88,PEACHTREE CITY LIBRARY,ChIJF7qxaCPq9IgRCl-Co4c94f4,"['05/18/2020 - 05/22/2020 08:00 AM - 05:00 PM', '05/25/2020 - 05/29/2020 08:00 AM - 05:00 PM', '05/30/2020 - 05/30/2020 09:00 AM - 04:00 PM', '06/01/2020 - 06/05/2020 07:00 AM - 05:00 PM']",Fayette County,056,33.400401,-84.580643,"201 WILLOWBEND RD, PEACHTREE CITY, GA 30269","https://www.google.com/maps/search/201+WILLOWBEND+RD+PEACHTREE+CITY,+GA,+30269"
89,ELECTIONS AND VOTER REGISTRATION OFFICE,ChIJAQnr5QKF9YgRAMtH8d3OL1k,"['05/18/2020 - 05/22/2020 08:00 AM - 06:00 PM', '05/26/2020 - 05/29/2020 08:00 AM - 06:00 PM', '05/30/2020 - 05/30/2020 09:00 AM - 05:00 PM', '06/01/2020 - 06/04/2020 08:00 AM - 06:00 PM', '06/05/2020 - 06/05/2020 08:00 AM - 05:00 PM']",Forsyth County,058,34.2236034,-84.1387526,"1201 SAWNEE DRIVE, CUMMING, GA 30040","https://www.google.com/maps/search/1201+SAWNEE+DRIVE+CUMMING,+GA,+30040"
90,HAMPTON PARK LIBRARY,ChIJJS6myOWI9YgRMVPVaKXqgng,"['06/01/2020 - 06/04/2020 08:00 AM - 06:00 PM', '06/05/2020 - 06/05/2020 08:00 AM - 05:00 PM']",Forsyth County,058,34.3052959,-84.0675323,"5345 SETTINGDOWN RD, CUMMING, GA 30041","https://www.google.com/maps/search/5345+SETTINGDOWN+RD+CUMMING,+GA,+30041"
91,MIDWAY PARK COMMUNITY BUILDING,ChIJY2n-Ui6D9YgRHiTkNoNRnAU,"['06/01/2020 - 06/04/2020 08:00 AM - 06:00 PM', '06/05/2020 - 06/05/2020 08:00 AM - 05:00 PM']",Forsyth County,058,34.2032843,-84.2194748,"5100 POST RD, CUMMING, GA 30040","https://www.google.com/maps/search/5100+POST+RD+CUMMING,+GA,+30040"
92,SHARON SPRINGS PARK COMMUNITY BUILDING,ChIJQXkG6cKb9YgRENEpChnCKb0,"['06/01/2020 - 06/04/2020 08:00 AM - 06:00 PM', '06/05/2020 - 06/05/2020 08:00 AM - 05:00 PM']",Forsyth County,058,34.1163496,-84.1640814,"1950 SHARON RD, CUMMING, GA 30041","https://www.google.com/maps/search/1950+SHARON+RD+CUMMING,+GA,+30041"
93,FRANKLIN COUNTY BOARD OF ELECTIONS & REGISTRATION BUILDING,ChIJqwGObXWfWIgRE-sZbnu1Mv8,"['05/18/2020 - 05/22/2020 08:00 AM - 04:30 PM', '05/25/2020 - 05/29/2020 08:00 AM - 04:30 PM', '05/30/2020 - 05/30/2020 09:00 AM - 04:00 PM', '06/01/2020 - 06/05/2020 08:00 AM - 04:30 PM']",Franklin County,059,34.3670106,-83.2311314,"7850 ROYSTON RD, CARNESVILLE, GA 30521","https://www.google.com/maps/search/7850+ROYSTON+RD+CARNESVILLE,+GA,+30521"
94,AA - ALPHARETTA LIBRARY,ChIJLd6oi6J19YgRts_jqXZrqVs,"['05/18/2020 - 05/22/2020 09:00 AM - 04:30 PM', '05/26/2020 - 05/30/2020 09:00 AM - 04:30 PM', '06/01/2020 - 06/05/2020 09:00 AM - 04:30 PM']",Fulton County,060,34.0739169,-84.2922893,"10 PARK PLAZA, ALPHARETTA, GA 30009","https://www.google.com/maps/search/10+PARK+PLAZA+ALPHARETTA,+GA,+30009"
95,AA - C.T MARTIN NATATORIUM AND RECREATION CENTER,ChIJTRqgYHAc9YgR5ywErhF4bs4,"['05/18/2020 - 05/22/2020 09:00 AM - 04:30 PM', '05/26/2020 - 05/30/2020 09:00 AM - 04:30 PM', '06/01/2020 - 06/05/2020 09:00 AM - 04:30 PM']",Fulton County,060,33.7541215,-84.4918471,"3201 MARTIN LUTHER KING JR. DR, ATLANTA, GA 30311","https://www.google.com/maps/search/3201+MARTIN+LUTHER+KING+JR.+DR.,+S.W.+ATLANTA,+GA,+30311"
96,AA - GARDEN HILLS ELEMENTARY SCHOOL GYM,ChIJFwFjvpMF9YgRMBwLwpBJJHo,"['05/18/2020 - 05/22/2020 09:00 AM - 04:30 PM', '05/26/2020 - 05/30/2020 09:00 AM - 04:30 PM', '06/01/2020 - 06/05/2020 09:00 AM - 04:30 PM']",Fulton County,060,33.832584,-84.38037399999999,"285 SHERIDAN DRIVE, ATLANTA, GA 30305","https://www.google.com/maps/search/285+SHERIDAN+DRIVE+ATLANTA,+GA,+30305"
97,AA - SANDY SPRINGS BRANCH LIBRARY,ChIJfdAKRb0O9YgReJG-oOZ-u4E,"['05/18/2020 - 05/22/2020 09:00 AM - 04:30 PM', '05/26/2020 - 05/30/2020 09:00 AM - 04:30 PM', '06/01/2020 - 06/05/2020 09:00 AM - 04:30 PM']",Fulton County,060,33.9239692,-84.37428419999999,"395 MOUNT VERNON HIGHWAY, SANDY SPRINGS, GA 30328","https://www.google.com/maps/search/395+MOUNT+VERNON+HIGHWAY,+NE+SANDY+SPRINGS,+GA,+30328"
98,AA - SOUTH FULTON ANNEX,ChIJvTX9PDvh9IgRmFu1sw1RfKY,"['05/18/2020 - 05/22/2020 09:00 AM - 04:30 PM', '05/26/2020 - 05/30/2020 09:00 AM - 04:30 PM', '06/01/2020 - 06/05/2020 09:00 AM - 04:30 PM']",Fulton County,060,33.6014156,-84.5498808,"5600 STONEWALL TELL ROAD, COLLEGE PARK, GA 30349","https://www.google.com/maps/search/5600+STONEWALL+TELL+ROAD+COLLEGE+PARK,+GA,+30349"
99,VOTER REGISTRATION OFFICE,ChIJKzRmolWWX4gRs8zK2OEym2c,['05/18/2020 - 06/05/2020 09:00 AM - 05:00 PM'],Gilmer County,061,34.695096,-84.4833347,"1 BROAD ST, ELLIJAY, GA 30540","https://www.google.com/maps/search/1+BROAD+ST.,+SUITE+107+ELLIJAY,+GA,+30540"
100,REGISTRAR'S OFFICE,EiQ2NzYgRSBNYWluIFN0LCBHaWJzb24sIEdBIDMwODEwLCBVU0EiGxIZChQKEgnLK1tlnRX3iBEuLSelfc75BRCkBQ,"['05/18/2020 - 06/05/2020 08:00 AM - 05:00 PM', '05/30/2020 - 05/30/2020 09:00 AM - 04:00 PM']",Glascock County,062,33.2313399,-82.6069682,"676 WEST MAIN, GIBSON, GA 30810","https://www.google.com/maps/search/676+WEST+MAIN+GIBSON,+GA,+30810"
101,BALLARD,ChIJ5T65qNPX5IgRP1dC4gKVdG8,"['05/18/2020 - 05/18/2020 08:00 AM - 07:00 PM', '05/19/2020 - 05/19/2020 08:00 AM - 05:00 PM', '05/20/2020 - 05/20/2020 08:00 AM - 05:00 PM', '05/21/2020 - 05/21/2020 08:00 AM - 05:00 PM', '05/22/2020 - 05/22/2020 08:00 AM - 05:00 PM', '05/26/2020 - 05/26/2020 08:00 AM - 05:00 PM', '05/27/2020 - 05/27/2020 08:00 AM - 05:00 PM', '05/28/2020 - 05/28/2020 08:00 AM - 05:00 PM', '05/29/2020 - 05/29/2020 08:00 AM - 05:00 PM', '05/30/2020 - 05/30/2020 09:00 AM - 04:00 PM', '06/01/2020 - 06/01/2020 08:00 AM - 07:00 PM', '06/02/2020 - 06/02/2020 08:00 AM - 05:00 PM', '06/03/2020 - 06/03/2020 08:00 AM - 05:00 PM', '06/04/2020 - 06/04/2020 08:00 AM - 05:00 PM', '06/05/2020 - 06/05/2020 08:00 AM - 05:00 PM']",Glynn County,063,31.20755,-81.50813699999999,"30 NIMITZ DRIVE, BRUNSWICK, GA 31520","https://www.google.com/maps/search/30+NIMITZ+DRIVE+BRUNSWICK,+GA,+31520"
102,BOARD OF ELECTIONS OFFICE PARK BLDG,ChIJP4yjzTrY5IgRsf84HmE2cjU,"['05/18/2020 - 05/18/2020 08:00 AM - 07:00 PM', '05/19/2020 - 05/19/2020 08:00 AM - 05:00 PM', '05/20/2020 - 05/20/2020 08:00 AM - 05:00 PM', '05/21/2020 - 05/21/2020 08:00 AM - 05:00 PM', '05/22/2020 - 05/22/2020 08:00 AM - 05:00 PM', '05/26/2020 - 05/26/2020 08:00 AM - 05:00 PM', '05/27/2020 - 05/27/2020 08:00 AM - 05:00 PM', '05/28/2020 - 05/28/2020 08:00 AM - 05:00 PM', '05/29/2020 - 05/29/2020 08:00 AM - 05:00 PM', '05/30/2020 - 05/30/2020 09:00 AM - 04:00 PM', '06/01/2020 - 06/01/2020 08:00 AM - 07:00 PM', '06/02/2020 - 06/02/2020 08:00 AM - 05:00 PM', '06/03/2020 - 06/03/2020 08:00 AM - 05:00 PM', '06/04/2020 - 06/04/2020 08:00 AM - 05:00 PM', '06/05/2020 - 06/05/2020 08:00 AM - 05:00 PM']",Glynn County,063,31.152092,-81.48477299999999,"1815 GLOUCESTER ST, BRUNSWICK, GA 31520","https://www.google.com/maps/search/1815+GLOUCESTER+ST+BRUNSWICK,+GA,+31520"
103,SSI ADVANCED VOTING/FIRE STATION # 2,ChIJqWYSKoDQ5IgR_iq3Anfa7RI,"['05/18/2020 - 05/18/2020 08:00 AM - 07:00 PM', '05/19/2020 - 05/19/2020 08:00 AM - 05:00 PM', '05/20/2020 - 05/20/2020 08:00 AM - 05:00 PM', '05/21/2020 - 05/21/2020 08:00 AM - 05:00 PM', '05/22/2020 - 05/22/2020 08:00 AM - 05:00 PM', '05/26/2020 - 05/26/2020 08:00 AM - 05:00 PM', '05/27/2020 - 05/27/2020 08:00 AM - 05:00 PM', '05/28/2020 - 05/28/2020 08:00 AM - 05:00 PM', '05/29/2020 - 05/29/2020 08:00 AM - 05:00 PM', '05/30/2020 - 05/30/2020 09:00 AM - 04:00 PM', '06/01/2020 - 06/01/2020 08:00 AM - 07:00 PM', '06/02/2020 - 06/02/2020 08:00 AM - 05:00 PM', '06/03/2020 - 06/03/2020 08:00 AM - 05:00 PM', '06/04/2020 - 06/04/2020 08:00 AM - 05:00 PM', '06/05/2020 - 06/05/2020 08:00 AM - 05:00 PM']",Glynn County,063,31.1577314,-81.38684049999999,"1965 DEMERE RD, ST. SIMONS ISLAND, GA 31522","https://www.google.com/maps/search/1965+DEMERE+RD+ST.+SIMONS+ISLAND,+GA,+31522"
104,ADVANCED/EARLY VOTING,ChIJUaEsIlAHYIgRw_FrhnDm3Wc,"['05/18/2020 - 05/22/2020 08:30 AM - 05:00 PM', '05/26/2020 - 05/29/2020 08:30 AM - 05:00 PM', '05/30/2020 - 05/30/2020 09:00 AM - 04:00 PM', '06/01/2020 - 06/05/2020 08:30 AM - 05:00 PM']",Gordon County,064,34.502562,-84.950193,"101 S PIEDMONT STREET, CALHOUN, GA 30701","https://www.google.com/maps/search/101+S+PIEDMONT+STREET+CALHOUN,+GA,+30701"
105,GRADY COUNTY BOARD OF REGISTRARS,ChIJb-UOiWqp7YgRbZZCb6RxoOg,"['05/18/2020 - 05/22/2020 08:30 AM - 04:30 PM', '05/26/2020 - 06/05/2020 08:30 AM - 04:30 PM', '05/30/2020 - 05/30/2020 09:00 AM - 04:00 PM']",Grady County,065,30.8786337,-84.20770519999999,"250 N. BROAD STREET, CAIRO, GA 39828","https://www.google.com/maps/search/250+N.+BROAD+STREET+CAIRO,+GA,+39828"
106,GREENE COUNTY ANNEX,ChIJs7rnPbP19ogR7MBn1w8jjM4,"['05/18/2020 - 05/22/2020 08:30 AM - 05:00 PM', '05/26/2020 - 05/29/2020 08:30 AM - 05:00 PM', '05/30/2020 - 05/30/2020 09:00 AM - 04:00 PM', '06/01/2020 - 06/05/2020 08:30 AM - 05:00 PM']",Greene County,066,33.566131,-83.19340199999999,"1180 C.WELDON SMITH DR, GREENSBORO, GA 30642","https://www.google.com/maps/search/1180+C.WELDON+SMITH+DR.+GREENSBORO,+GA,+30642"
107,BOGAN PARK COMMUNITY RECREATION CENTER,ChIJfe3x0XCT9YgRKhyUNaUh5jM,"['05/30/2020 - 05/30/2020 07:00 AM - 07:00 PM', '05/31/2020 - 05/31/2020 12:00 PM - 07:00 PM', '06/01/2020 - 06/05/2020 07:00 AM - 07:00 PM']",Gwinnett County,067,34.1072984,-83.96918029999999,"2723 N BOGAN RD, BUFORD, GA 30519","https://www.google.com/maps/search/2723+N+BOGAN+RD+BUFORD,+GA,+30519"
108,GEORGE PIERCE PARK COMMUNITY RECREATION CENTER,ChIJeRRILQKX9YgRxKhk2Vdi5h4,"['05/30/2020 - 05/30/2020 07:00 AM - 07:00 PM', '05/31/2020 - 05/31/2020 12:00 PM - 07:00 PM', '06/01/2020 - 06/05/2020 07:00 AM - 07:00 PM']",Gwinnett County,067,34.060691,-84.061702,"55 BUFORD HWY, SUWANEE, GA 30024","https://www.google.com/maps/search/55+BUFORD+HWY+SUWANEE,+GA,+30024"
109,GWINNETT COUNTY BOARD OF VOTER REGISTRATIONS AND ELECTIONS,ChIJZ4AThN2-9YgR_msh3myWQlY,"['05/18/2020 - 05/23/2020 08:00 AM - 05:00 PM', '05/24/2020 - 05/24/2020 12:00 PM - 07:00 PM', '05/26/2020 - 05/30/2020 08:00 AM - 05:00 PM', '05/31/2020 - 05/31/2020 12:00 PM - 07:00 PM', '06/01/2020 - 06/05/2020 08:00 AM - 05:00 PM']",Gwinnett County,067,33.9390148,-83.9852093,"455 GRAYSON HWY, LAWRENCEVILLE, GA 30046","https://www.google.com/maps/search/455+GRAYSON+HWY,+STE+200+LAWRENCEVILLE,+GA,+30046"
110,GWINNETT COUNTY FAIRGROUNDS,ChIJoUw-v8y-9YgRSc-gxzD86mI,"['05/18/2020 - 05/23/2020 07:00 AM - 07:00 PM', '05/24/2020 - 05/24/2020 12:00 PM - 07:00 PM', '05/26/2020 - 05/30/2020 07:00 AM - 07:00 PM', '05/31/2020 - 05/31/2020 12:00 AM - 07:00 PM', '06/01/2020 - 06/05/2020 07:00 AM - 07:00 PM']",Gwinnett County,067,33.9191538,-83.98849779999999,"2405 SUGARLOAF PKWY, LAWRENCEVILLE, GA 30045","https://www.google.com/maps/search/2405+SUGARLOAF+PKWY+LAWRENCEVILLE,+GA,+30045"
111,LENORA PARK GYM,ChIJbdKVpya39YgRVU23FX59JXY,"['05/30/2020 - 05/30/2020 07:00 AM - 07:00 PM', '05/31/2020 - 05/31/2020 12:00 PM - 07:00 PM', '06/01/2020 - 06/01/2020 07:00 AM - 07:00 PM']",Gwinnett County,067,33.7911207,-84.0015384,"4515 LENORA CHURCH ROAD, SNELLVILLE, GA 30078","https://www.google.com/maps/search/4515+LENORA+CHURCH+ROAD+SNELLVILLE,+GA,+30078"
112,LUCKY SHOALS PARK GYM,ChIJTeMVlGKm9YgRv0A5pSrlaTM,"['05/30/2020 - 05/30/2020 07:00 AM - 07:00 PM', '05/31/2020 - 05/31/2020 12:00 PM - 07:00 PM', '06/01/2020 - 06/05/2020 07:00 AM - 07:00 PM']",Gwinnett County,067,33.8805852,-84.19716939999999,"4651 BRITT RD, NORCROSS, GA 30071","https://www.google.com/maps/search/4651+BRITT+RD+NORCROSS,+GA,+30071"
113,COUNTY ELECTIONS & REGISTRATION OFFICE,ChIJJzLFKWW0WIgROKNU9MRrOK4,['05/18/2020 - 06/05/2020 08:00 AM - 05:00 PM'],Habersham County,068,34.6067533,-83.5048304,"130 JACOB'S WAY, CLARKESVILLE, GA 30523","https://www.google.com/maps/search/130+JACOB'S+WAY,+STE+101+CLARKESVILLE,+GA,+30523"
114,FIRST BAPTIST CHURCH OF CORNELIA,ChIJwygpRPStWIgRaikwbbBMHL4,"['05/30/2020 - 05/30/2020 09:00 AM - 04:00 PM', '06/01/2020 - 06/05/2020 08:00 AM - 07:00 PM']",Habersham County,068,34.5105089,-83.52471949999999,"325 OAK STREET, CORNELIA, GA 30531","https://www.google.com/maps/search/325+OAK+STREET+CORNELIA,+GA,+30531"
115,RUBY FULBRIGHT AQUATIC CENTER,ChIJSbMUfam2WIgROcPVTuYwSvY,"['05/30/2020 - 05/30/2020 09:00 AM - 04:00 PM', '06/01/2020 - 06/05/2020 08:00 AM - 07:00 PM']",Habersham County,068,34.603976,-83.5032992,"120 PAUL FRANKLIN RD, CLARKESVILLE, GA 30523","https://www.google.com/maps/search/120+PAUL+FRANKLIN+RD+CLARKESVILLE,+GA,+30523"
116,EAST HALL COMMUNITY BUILDING,ChIJr_eo9Eb49YgRsKoSQeOjvYA,"['05/30/2020 - 05/30/2020 07:00 AM - 07:00 PM', '06/01/2020 - 06/05/2020 07:00 AM - 07:00 PM']",Hall County,069,34.3185624,-83.7364324,"3911 P DAVISON ROAD, GAINESVILLE, GA 30507","https://www.google.com/maps/search/3911+P+DAVISON+ROAD+GAINESVILLE,+GA,+30507"
117,GAINESVILLE ELEMENTARY SCHOOL,ChIJNarB_xX09YgRVVKYoN7ArRY,"['05/18/2020 - 05/22/2020 07:00 AM - 07:00 PM', '05/25/2020 - 05/30/2020 07:00 AM - 07:00 PM', '06/01/2020 - 06/05/2020 07:00 AM - 07:00 PM']",Hall County,069,34.28849,-83.8632779,"1145 MCEVER ROAD, GAINESVILLE, GA 30504","https://www.google.com/maps/search/1145+MCEVER+ROAD+GAINESVILLE,+GA,+30504"
118,NORTH HALL COMMUNITY CENTER,ChIJl8sYa69ZX4gRFgKALRREf7w,"['05/30/2020 - 05/30/2020 07:00 AM - 07:00 PM', '06/01/2020 - 06/05/2020 07:00 AM - 07:00 PM']",Hall County,069,34.405665,-83.7980477,"4175 NOPONE RD, GAINESVILLE, GA 30506","https://www.google.com/maps/search/4175+NOPONE+RD+GAINESVILLE,+GA,+30506"
119,SPOUT SPRINGS LIBRARY,ChIJiTMt5Qvt9YgRswX54LMxxoA,"['05/30/2020 - 05/30/2020 07:00 AM - 07:00 PM', '06/01/2020 - 06/05/2020 07:00 AM - 07:00 PM']",Hall County,069,34.1522456,-83.894341,"6488 SPOUT SPRINGS RD, FLOWERY BRANCH, GA 30542","https://www.google.com/maps/search/6488+SPOUT+SPRINGS+RD+FLOWERY+BRANCH,+GA,+30542"
120,YOUTH CENTER,ChIJZwXznubg9ogRNfSGOIQRvXw,['05/18/2020 - 06/05/2020 09:00 AM - 05:00 PM'],Hancock County,070,33.2771021,-82.9664829,"12560 AUGUSTA HWY E, SPARTA, GA 31087","https://www.google.com/maps/search/12560+AUGUSTA+HWY+E+SPARTA,+GA,+31087"
121,HARALSON COUNTY COURTHOUSE,ChIJcZqOYfrbiogRJOcRw3KQC80,"['05/18/2020 - 05/22/2020 08:30 AM - 05:00 PM', '05/26/2020 - 05/29/2020 08:30 AM - 05:00 PM', '05/30/2020 - 05/30/2020 09:00 AM - 04:00 PM', '06/01/2020 - 06/05/2020 08:30 AM - 05:00 PM']",Haralson County,071,33.8020262,-85.18175719999999,"4485 GEORGIA HIGHWAY 120, BUCHANAN, GA 30113","https://www.google.com/maps/search/4485+GEORGIA+HIGHWAY+120+BUCHANAN,+GA,+30113"
122,COURTHOUSE ANNEX,ChIJw2cxjMhN84gRA0lSmpTi9ek,"['05/18/2020 - 06/05/2020 08:00 AM - 05:00 PM', '05/30/2020 - 05/30/2020 09:00 AM - 04:00 PM']",Harris County,072,32.7590997,-84.8748077,"104 N COLLEGE ST, HAMILTON, GA 31811","https://www.google.com/maps/search/104+N+COLLEGE+ST+HAMILTON,+GA,+31811"
123,ADVANCED/ABSENTEE VOTING,ChIJSXoVnleAWIgRbCR2lVioHG0,"['05/18/2020 - 06/05/2020 08:00 AM - 05:00 PM', '05/30/2020 - 05/30/2020 09:00 AM - 04:00 PM']",Hart County,073,34.3468124,-82.94045059999999,"1951 BOWMAN HWY, HARTWELL, GA 30643","https://www.google.com/maps/search/1951+BOWMAN+HWY+HARTWELL,+GA,+30643"
124,FRANKLIN CITY HALL,ChIJRZtQe5lIi4gRnamL1Ocm7e8,"['04/27/2020 - 04/28/2020 08:00 AM - 05:00 PM', '04/29/2020 - 04/29/2020 08:00 AM - 12:00 PM', '04/30/2020 - 05/01/2020 08:00 AM - 05:00 PM', '05/04/2020 - 05/05/2020 08:00 AM - 05:00 PM', '05/06/2020 - 05/06/2020 08:00 AM - 12:00 PM', '05/07/2020 - 05/08/2020 08:00 AM - 05:00 PM', '05/11/2020 - 05/12/2020 08:00 AM - 05:00 PM', '05/13/2020 - 05/13/2020 08:00 AM - 12:00 PM', '05/14/2020 - 05/15/2020 08:00 AM - 05:00 PM']",Heard County,074,33.2799521,-85.0992624,"150 DAVIS STREET, FRANKLIN, GA 30217","https://www.google.com/maps/search/150+DAVIS+STREET+FRANKLIN,+GA,+30217"
125,HEARD COUNTY COURTHOUSE,ChIJP8GxkJlIi4gR8XFgZuSoL7c,"['05/18/2020 - 05/22/2020 08:30 AM - 05:00 PM', '05/26/2020 - 05/29/2020 08:30 AM - 05:00 PM', '05/30/2020 - 05/30/2020 09:00 AM - 04:00 PM', '06/01/2020 - 06/05/2020 08:30 AM - 05:00 PM']",Heard County,074,33.2793166,-85.0979229,"215 E COURT SQUARE, FRANKLIN, GA 30217","https://www.google.com/maps/search/215+E+COURT+SQUARE+FRANKLIN,+GA,+30217"
126,ELECTIONS OFFICE,ChIJYSv-nVla9IgRUeQoYXsFJiE,"['05/18/2020 - 05/22/2020 08:00 AM - 05:00 PM', '05/26/2020 - 05/29/2020 08:00 AM - 05:00 PM', '05/30/2020 - 05/30/2020 09:00 AM - 04:00 PM', '05/31/2020 - 05/31/2020 01:00 PM - 05:00 PM', '06/01/2020 - 06/05/2020 07:00 AM - 07:00 PM']",Henry County,075,33.4489186,-84.14775949999999,"40 ATLANTA ST, MCDONOUGH, GA 30253","https://www.google.com/maps/search/40+ATLANTA+ST+MCDONOUGH,+GA,+30253"
127,FAIRVIEW RECREATION CENTER,ChIJcf_76XhU9IgRd6dOojuIFWs,"['05/30/2020 - 05/30/2020 09:00 AM - 04:00 PM', '06/01/2020 - 06/05/2020 07:00 AM - 07:00 PM']",Henry County,075,33.6084147,-84.1874416,"35 AUSTIN ROAD, STOCKBRIDGE, GA 30281","https://www.google.com/maps/search/35+AUSTIN+ROAD+STOCKBRIDGE,+GA,+30281"
128,FORTSON LIBRARY,ChIJvfAbPPf19IgRLOFh3urXbJI,"['05/30/2020 - 05/30/2020 09:00 AM - 04:00 PM', '06/01/2020 - 06/01/2020 07:00 AM - 07:00 PM']",Henry County,075,33.3834,-84.274142,"61 MCDONOUGH ST, HAMPTON, GA 30228","https://www.google.com/maps/search/61+MCDONOUGH+ST+HAMPTON,+GA,+30228"
129,J. P. MOSELEY PARK,ChIJYxxalRhR9IgR_v64v0MLbXs,['06/01/2020 - 06/05/2020 07:00 AM - 07:00 PM'],Henry County,075,33.532076,-84.163342,"1041 MILLERS MILL ROAD, STOCKBRIDGE, GA 30281","https://www.google.com/maps/search/1041+MILLERS+MILL+ROAD+STOCKBRIDGE,+GA,+30281"
130,LOCUST GROVE LIBRARY,ChIJezgvwS5d9IgRDQYmS4-vRGw,"['05/30/2020 - 05/30/2020 09:00 AM - 04:00 PM', '06/01/2020 - 06/01/2020 07:00 AM - 07:00 PM']",Henry County,075,33.3369686,-84.1081336,"115 M.L K. JR. BLVD, LOCUST GROVE, GA 30248","https://www.google.com/maps/search/115+M.L+K.+JR.+BLVD+LOCUST+GROVE,+GA,+30248"
131,MERLE MANDERS CONFERENCE CENTER,ChIJVbR8Dl1W9IgR-8MZsNE_fWk,"['05/18/2020 - 05/22/2020 08:00 AM - 05:00 PM', '05/26/2020 - 05/29/2020 08:00 AM - 05:00 PM', '05/30/2020 - 05/30/2020 09:00 AM - 04:00 PM', '05/31/2020 - 05/31/2020 01:00 PM - 04:00 PM', '06/01/2020 - 06/01/2020 07:00 AM - 07:00 PM']",Henry County,075,33.5492416,-84.2346298,"111 DAVIS RD, STOCKBRIDGE, GA 30281","https://www.google.com/maps/search/111+DAVIS+RD+STOCKBRIDGE,+GA,+30281"
132,BOARD OF ELECTIONS,ChIJ_WLX4m7b84gR_INW3T4U7Ac,"['05/18/2020 - 05/22/2020 08:00 AM - 05:00 PM', '05/26/2020 - 05/29/2020 08:00 AM - 05:00 PM', '05/30/2020 - 05/30/2020 09:00 AM - 04:00 PM', '06/01/2020 - 06/05/2020 08:00 AM - 05:00 PM']",Houston County,076,32.4578075,-83.73381789999999,"801 MAIN STREET, PERRY, GA 31069","https://www.google.com/maps/search/801+MAIN+STREET+PERRY,+GA,+31069"
133,CENTRAL GA TECH HEALTH SCIENCES BLDG,ChIJa951TAXe84gRphJk2zViLo0,"['05/26/2020 - 05/29/2020 08:00 AM - 05:00 PM', '06/01/2020 - 06/05/2020 08:00 AM - 05:00 PM']",Houston County,076,32.5486381,-83.66698749999999,"71 COHEN WALKER DR, WARNER ROBINS, GA 31088","https://www.google.com/maps/search/71+COHEN+WALKER+DR+WARNER+ROBINS,+GA,+31088"
134,HOUSTON HEALTH PAVILION CONF CENTER,ChIJMxSjzw3h84gRzHvLEVe2zU8,"['05/26/2020 - 05/29/2020 08:00 AM - 05:00 PM', '05/30/2020 - 05/30/2020 09:00 AM - 04:00 PM', '06/01/2020 - 06/05/2020 08:00 AM - 05:00 PM']",Houston County,076,32.6203105,-83.6434882,"233 N HOUSTON RD, WARNER ROBINS, GA 31093","https://www.google.com/maps/search/233+N+HOUSTON+RD+WARNER+ROBINS,+GA,+31093"
135,IRWIN COUNTY ELECTIONS OFFICE,Ei41MDcgTiBJcndpbiBBdmUgU1VJVEUgQywgT2NpbGxhLCBHQSAzMTc3NCwgVVNBIiMaIQoWChQKEgm5VqKhYt3xiBEcEyIVnPgiqhIHU1VJVEUgQw,"['05/18/2020 - 06/05/2020 08:00 AM - 05:00 PM', '05/30/2020 - 05/30/2020 09:00 AM - 04:00 PM']",Irwin County,077,31.5996897,-83.25035869999999,"507 N IRWIN AVE  SUITE C, OCILLA, GA 31774","https://www.google.com/maps/search/507+N+IRWIN+AVE++SUITE+C+OCILLA,+GA,+31774"
136,GORDON STREET CENTER,ChIJ7Ze5hbYJ9ogRfEnxobU8H14,"['05/18/2020 - 05/22/2020 09:00 AM - 05:00 PM', '05/26/2020 - 05/29/2020 09:00 AM - 05:00 PM', '05/30/2020 - 05/30/2020 09:00 AM - 04:00 PM', '06/01/2020 - 06/05/2020 09:00 AM - 05:00 PM']",Jackson County,078,34.11229300000001,-83.567869,"441 GORDON STREET, JEFFERSON, GA 30549","https://www.google.com/maps/search/441+GORDON+STREET+JEFFERSON,+GA,+30549"
137,JASPER COUNTY COURTHOUSE,Ei0xMjYgVyBHcmVlbmUgU3QgIzYsIE1vbnRpY2VsbG8sIEdBIDMxMDY0LCBVU0EiHRobChYKFAoSCZkqbekjIvSIEcixv7cMnGiNEgE2,"['05/18/2020 - 05/22/2020 08:30 AM - 04:30 PM', '05/26/2020 - 05/29/2020 08:30 AM - 04:30 PM', '05/30/2020 - 05/30/2020 09:00 AM - 04:00 PM', '06/01/2020 - 06/05/2020 08:30 AM - 04:30 PM']",Jasper County,079,33.3049052,-83.6836647,"126 WEST GREENE STREET SUITE 6, MONTICELLO, GA 31064","https://www.google.com/maps/search/126+WEST+GREENE+STREET+SUITE+6+MONTICELLO,+GA,+31064"
138,BOARD OF ELECTIONS,ChIJJZ6JZsdP94gRI1Qqli_HWsM,"['05/18/2020 - 06/05/2020 08:00 AM - 05:00 PM', '05/30/2020 - 05/30/2020 09:00 AM - 04:00 PM']",Jefferson County,081,32.9982877,-82.4097651,"415 GREEN STREET, LOUISVILLE, GA 30434","https://www.google.com/maps/search/415+GREEN+STREET+LOUISVILLE,+GA,+30434"
139,ADVANCE VOTING,ChIJB9dbrs3P8IgRGIk1e44nKXo,"['05/18/2020 - 06/05/2020 08:00 AM - 04:30 PM', '05/30/2020 - 05/30/2020 09:00 AM - 04:00 PM']",Johnson County,083,32.7291961,-82.7216898,"2484 W ELM ST, WRIGHTSVILLE, GA 31096","https://www.google.com/maps/search/2484+W+ELM+ST+WRIGHTSVILLE,+GA,+31096"
140,ELECTIONS OFFICE,ChIJX0udjGyp9ogRA4MdHgq8HVo,"['05/18/2020 - 06/05/2020 08:30 AM - 05:00 PM', '05/30/2020 - 05/30/2020 09:00 AM - 04:00 PM']",Jones County,084,33.0213405,-83.5347772,"166 INDUSTRIAL BLVD, GRAY, GA 31032","https://www.google.com/maps/search/166+INDUSTRIAL+BLVD.+GRAY,+GA,+31032"
141,LAMAR COUNTY BOARD OF ELECTIONS AND REGISTRATION OFFICE,ChIJRZST4sZ79IgRwNwcHGjEKyU,"['05/18/2020 - 05/22/2020 08:00 AM - 05:00 PM', '05/25/2020 - 05/29/2020 08:00 AM - 05:00 PM', '05/30/2020 - 05/30/2020 09:00 AM - 04:00 PM', '06/01/2020 - 06/05/2020 08:00 AM - 05:00 PM']",Lamar County,085,33.0519631,-84.1574867,"408 THOMASTON ST, BARNESVILLE, GA 30204","https://www.google.com/maps/search/408+THOMASTON+ST+BARNESVILLE,+GA,+30204"
142,LANIER COUNTY BOARD OF ELECTIONS,ChIJc7D2PTlH7ogR0mEMMerv4xI,"['05/18/2020 - 05/22/2020 08:00 AM - 05:00 PM', '05/26/2020 - 05/29/2020 08:00 AM - 05:00 PM', '05/30/2020 - 05/30/2020 09:00 AM - 04:00 PM', '06/01/2020 - 06/05/2020 08:00 AM - 05:00 PM']",Lanier County,086,31.0421464,-83.0900108,"162 W THIGPEN AVE, LAKELAND, GA 31635","https://www.google.com/maps/search/162+W+THIGPEN+AVE+LAKELAND,+GA,+31635"
143,LAURENS COUNTY BOARD OF REGISTRARS OFFICE BUILDING,ChIJyWnXTIvf8IgRHyO1KneWyTY,"['05/18/2020 - 05/22/2020 08:30 AM - 05:00 PM', '05/26/2020 - 05/29/2020 08:30 AM - 05:00 PM', '05/30/2020 - 05/30/2020 09:00 AM - 04:00 PM', '06/01/2020 - 06/05/2020 08:30 AM - 05:00 PM']",Laurens County,087,32.5402224,-82.9038138,"117 E JACKSON ST, DUBLIN, GA 31021","https://www.google.com/maps/search/117+E+JACKSON+ST+DUBLIN,+GA,+31021"
144,ELECTIONS OFFICE,ChIJr9F07GZk8ogRYCXounn_I3E,"['05/18/2020 - 05/22/2020 08:15 AM - 05:00 PM', '05/26/2020 - 05/29/2020 08:15 AM - 05:00 PM', '05/30/2020 - 05/30/2020 09:00 AM - 04:00 PM', '06/01/2020 - 06/05/2020 08:15 AM - 05:00 PM']",Lee County,088,31.7306181,-84.1683455,"100 STARKSVILLE AVE, LEESBURG, GA 31763","https://www.google.com/maps/search/100+STARKSVILLE+AVE.,+N+LEESBURG,+GA,+31763"
145,LIBERTY COUNTY COMPLEX,ChIJWWS_xyAc-4gRaHqFi-vlpBY,['05/18/2020 - 06/05/2020 09:00 AM - 05:00 PM'],Liberty County,089,31.7981074,-81.4545899,"9397 E. OGLETHORPE HWY, MIDWAY, GA 31320","https://www.google.com/maps/search/9397+E.+OGLETHORPE+HWY.+MIDWAY,+GA,+31320"
146,MAIN OFFICE,Ei4xMDAgTiBNYWluIFN0ICMxNjAwLCBIaW5lc3ZpbGxlLCBHQSAzMTMxMywgVVNBIiAaHgoWChQKEgnZoIKvg-P6iBEmlxmStg4yvRIEMTYwMA,['05/18/2020 - 06/05/2020 09:00 AM - 05:00 PM'],Liberty County,089,31.847577,-81.5958405,"100 N. MAIN ST .SUITE 1600, HINESVILLE, GA 31313","https://www.google.com/maps/search/100+N.+MAIN+ST+.SUITE+1600+HINESVILLE,+GA,+31313"
147,BOARD OF ELECTIONS,ChIJ3QOFJiuX94gRW62SXJJ4-k4,['05/18/2020 - 06/05/2020 08:00 AM - 05:00 PM'],Lincoln County,090,33.7871374,-82.47616409999999,"160 MAY AVE, LINCOLNTON, GA 30817","https://www.google.com/maps/search/160+MAY+AVE+LINCOLNTON,+GA,+30817"
148,MARY ANN ODUM ANNEX,Eig3NSBFIEFjYWRlbXkgU3QsIEx1ZG93aWNpLCBHQSAzMTMxNiwgVVNBIhoSGAoUChIJ_WSfHGTC-ogR8pB9SSNBeAwQSw,"['05/18/2020 - 05/22/2020 08:00 AM - 05:00 PM', '05/25/2020 - 05/29/2020 08:00 AM - 05:00 PM', '05/30/2020 - 05/30/2020 09:00 AM - 04:00 PM', '06/01/2020 - 06/05/2020 08:00 AM - 05:00 PM']",Long County,091,31.7084069,-81.7406508,"75 WEST ACADEMY STREET, LUDOWICI, GA 31316","https://www.google.com/maps/search/75+WEST+ACADEMY+STREET+LUDOWICI,+GA,+31316"
149,LOWNDES COUNTY ELECTIONS,ChIJLQTaRa1n7ogRF-teVG9TT-8,"['05/18/2020 - 05/22/2020 07:00 AM - 07:00 PM', '05/23/2020 - 05/23/2020 09:00 AM - 04:00 PM', '05/24/2020 - 05/24/2020 12:00 PM - 05:00 PM', '05/25/2020 - 05/29/2020 07:00 AM - 07:00 PM', '05/30/2020 - 05/30/2020 09:00 AM - 04:00 PM', '06/01/2020 - 06/05/2020 07:00 AM - 07:00 PM']",Lowndes County,092,30.870364,-83.2926145,"2808 N OAK ST, VALDOSTA, GA 31602","https://www.google.com/maps/search/2808+N+OAK+ST+VALDOSTA,+GA,+31602"
150,MADISON COUNTY BOARD OF ELECTIONS AND REGISTRATION,ChIJS0f0RTs99ogRxH93TeQrYCI,"['05/18/2020 - 05/22/2020 08:00 AM - 05:00 PM', '05/25/2020 - 05/29/2020 08:00 AM - 05:00 PM', '05/30/2020 - 05/30/2020 09:00 AM - 04:00 PM', '06/01/2020 - 06/05/2020 08:00 AM - 05:00 PM']",McIntosh County,095,34.1242771,-83.2212629,"94 SPRING LAKE DR, DANIELSVILLE, GA 30633","https://www.google.com/maps/search/94+SPRING+LAKE+DR+DANIELSVILLE,+GA,+30633"
151,ADVANCE VOTING,ChIJgRQRWfgb84gRyGCGM-jwDCs,"['05/18/2020 - 06/05/2020 08:45 AM - 04:45 PM', '05/30/2020 - 05/30/2020 09:00 AM - 04:00 PM']",Macon County,096,32.3296344,-84.5141344,"100 E BURKHALTER AV, BUENA VISTA, GA 31803","https://www.google.com/maps/search/100+E+BURKHALTER+AV+BUENA+VISTA,+GA,+31803"
152,DEARING COMMUNITY CENTER,ChIJi3qRFZx694gR_7H4j5Crlgk,['05/18/2020 - 06/05/2020 08:00 AM - 04:00 PM'],Madison County,097,33.4129757,-82.3844481,"4614 AUGUSTA HWY, DEARING, GA 30808","https://www.google.com/maps/search/4614+AUGUSTA+HWY+DEARING,+GA,+30808"
153,PRECINCT ON MAIN (OLD THS GYM),ChIJ819Dp49z94gRPgwAkyF97CE,['05/18/2020 - 06/05/2020 08:00 AM - 04:00 PM'],Madison County,097,33.4721081,-82.5061066,"511 MAIN ST, THOMSON, GA 30824","https://www.google.com/maps/search/511+MAIN+ST+THOMSON,+GA,+30824"
154,ELECTION OFFICE,ChIJyWNeCWQr-4gR-wx0T_8RUE0,['05/18/2020 - 06/05/2020 09:00 AM - 05:00 PM'],Marion County,098,31.3714463,-81.43365969999999,"103 JEFFERSON ST, DARIEN, GA 31305 - 1987","https://www.google.com/maps/search/103+JEFFERSON+ST+DARIEN,+GA,+31305+-+1987"
155,ELECTION HQ,ChIJswwInumm9IgRz2ycHQFw8qc,"['05/18/2020 - 05/22/2020 08:30 AM - 05:00 PM', '05/26/2020 - 05/29/2020 08:30 AM - 05:00 PM', '05/30/2020 - 05/30/2020 09:00 AM - 04:00 PM', '06/01/2020 - 06/05/2020 08:30 AM - 05:00 PM']",Meriwether County,099,33.0279407,-84.71320829999999,"137 S. COURT SQUARE, GREENVILLE, GA 30222","https://www.google.com/maps/search/137+S.+COURT+SQUARE+GREENVILLE,+GA,+30222"
156,MILLER COUNTY COURTHOUSE,ChIJv6F70p1H7YgRYAcw-x_QPhA,"['05/18/2020 - 06/05/2020 09:00 AM - 05:00 PM', '05/30/2020 - 05/30/2020 09:00 AM - 04:00 PM']",Miller County,100,31.1717442,-84.7339233,"155 S 1ST ST, COLQUITT, GA 39837","https://www.google.com/maps/search/155+S+1ST+ST+COLQUITT,+GA,+39837"
157,ADVANCE VOTING,ChIJwbYdTCKc7YgRPqOy4ZTdyys,['05/18/2020 - 06/05/2020 09:00 AM - 05:00 PM'],Mitchell County,101,31.2315904,-84.20906409999999,"11 W BROAD ST, CAMILLA, GA 31730","https://www.google.com/maps/search/11+W+BROAD+ST+CAMILLA,+GA,+31730"
158,MONTGOMERY COUNTY COURTHOUSE,ChIJP1J2TgX18IgRrXZvLRniHOY,"['05/18/2020 - 05/22/2020 08:30 AM - 05:00 PM', '05/25/2020 - 05/29/2020 08:30 AM - 05:00 PM', '05/30/2020 - 05/30/2020 09:00 AM - 04:00 PM', '06/01/2020 - 06/05/2020 08:30 AM - 05:00 PM']",Montgomery County,103,32.1742409,-82.59468729999999,"400 S RAILROAD AVE, MOUNT VERNON, GA 30445","https://www.google.com/maps/search/400+S+RAILROAD+AVE+MOUNT+VERNON,+GA,+30445"
159,ABSA,ChIJuQiTGgqH9ogRiAYDG8lvNE8,"['05/18/2020 - 05/22/2020 08:00 AM - 05:00 PM', '05/26/2020 - 05/29/2020 08:00 AM - 05:00 PM', '05/30/2020 - 05/30/2020 09:00 AM - 04:00 PM', '06/01/2020 - 06/05/2020 08:00 AM - 05:00 PM']",Morgan County,104,33.5967978,-83.4651337,"434 HANCOCK  STREET, MADISON, GA 30650","https://www.google.com/maps/search/434+HANCOCK++STREET+MADISON,+GA,+30650"
160,MURRAY COUNTY RECREATION CENTER,ChIJ4eeXdNjCX4gR_1cgIrBxpFE,"['05/18/2020 - 05/22/2020 08:30 AM - 04:30 PM', '05/26/2020 - 05/29/2020 08:30 AM - 04:30 PM', '05/30/2020 - 05/30/2020 09:00 AM - 04:00 PM', '06/01/2020 - 06/05/2020 08:30 AM - 04:30 PM']",Murray County,105,34.7920331,-84.759598,"651 HYDEN TYLER RD, CHATSWORTH, GA 30705","https://www.google.com/maps/search/651+HYDEN+TYLER+RD+CHATSWORTH,+GA,+30705"
161,MURRAY COUNTY RECREATION CENTER,ChIJ4eeXdNjCX4gR_1cgIrBxpFE,"['07/20/2020 - 07/24/2020 08:30 AM - 04:30 PM', '07/27/2020 - 07/31/2020 08:30 AM - 04:30 PM', '08/03/2020 - 08/07/2020 08:30 AM - 04:30 PM']",Murray County,105,34.7920331,-84.759598,"651 HYDEN TYLER RD, CHATSWORTH, GA 30705","https://www.google.com/maps/search/651+HYDEN+TYLER+RD+CHATSWORTH,+GA,+30705"
162,MURRAY COUNTY RECREATION CENTER,ChIJ4eeXdNjCX4gR_1cgIrBxpFE,"['10/12/2020 - 10/16/2020 08:30 AM - 04:30 PM', '10/19/2020 - 10/23/2020 08:30 AM - 04:30 PM', '10/24/2020 - 10/24/2020 09:00 AM - 04:00 PM', '10/26/2020 - 10/30/2020 08:30 AM - 04:30 PM']",Murray County,105,34.7920331,-84.759598,"651 HYDEN TYLER RD, CHATSWORTH, GA 30705","https://www.google.com/maps/search/651+HYDEN+TYLER+RD+CHATSWORTH,+GA,+30705"
163,CITIZENS SERVICE CENTER,ChIJ83U2XCnNjIgRURfBumcnJsE,"['05/18/2020 - 05/22/2020 07:00 AM - 07:00 PM', '05/23/2020 - 05/23/2020 09:00 AM - 04:00 PM', '05/26/2020 - 05/29/2020 07:00 AM - 07:00 PM', '05/30/2020 - 05/31/2020 09:00 AM - 04:00 PM', '06/01/2020 - 06/05/2020 07:00 AM - 07:00 PM']",Muscogee County,106,32.4764568,-84.94551229999999,"3111 CITIZENS WAY, COLUMBUS, GA 31906","https://www.google.com/maps/search/3111+CITIZENS+WAY+COLUMBUS,+GA,+31906"
164,NEWTON COUNTY ADMIN BUILDING,ChIJrappwmI09IgRrzkg_T73SF8,"['05/18/2020 - 05/22/2020 08:00 AM - 05:00 PM', '05/25/2020 - 05/29/2020 08:00 AM - 05:00 PM', '05/30/2020 - 05/30/2020 09:00 AM - 04:00 PM', '06/01/2020 - 06/05/2020 08:00 AM - 05:00 PM']",Newton County,107,33.5978836,-83.8589664,"1113 USHER ST, COVINGTON, GA 30014","https://www.google.com/maps/search/1113+USHER+ST+COVINGTON,+GA,+30014"
165,ELECTIONS OFFICE,ChIJiRr8Jj1u9ogRtFTLLX0rNTo,"['05/18/2020 - 05/22/2020 08:00 AM - 05:00 PM', '05/25/2020 - 05/29/2020 08:00 AM - 05:00 PM', '05/30/2020 - 05/30/2020 09:00 AM - 04:00 PM', '06/01/2020 - 06/05/2020 08:00 AM - 05:00 PM']",Oconee County,108,33.8633192,-83.4101259,"23 N MAIN STREET, WATKINSVILLE, GA 30677","https://www.google.com/maps/search/23+N+MAIN+STREET+WATKINSVILLE,+GA,+30677"
166,BOARD OF ELECTIONS,ChIJHTOl19lF9ogRVhRaHJTuTqs,"['05/18/2020 - 05/22/2020 08:00 AM - 05:00 PM', '05/26/2020 - 05/29/2020 08:00 AM - 05:00 PM', '05/30/2020 - 05/30/2020 09:00 AM - 04:00 PM', '06/01/2020 - 06/05/2020 08:00 AM - 05:00 PM']",Oglethorpe County,109,33.8684354,-83.1111541,"109 EAST BOGGS STREET, LEXINGTON, GA 30648","https://www.google.com/maps/search/109+EAST+BOGGS+STREET+LEXINGTON,+GA,+30648"
167,WATSON GOV'T COMPLEX,ChIJLzUZjXkx9YgRr04XUUEgl-Q,"['05/18/2020 - 05/29/2020 08:00 AM - 05:00 PM', '05/23/2020 - 05/23/2020 09:00 AM - 04:00 PM', '05/30/2020 - 05/30/2020 09:00 AM - 04:00 PM', '06/01/2020 - 06/05/2020 08:00 AM - 07:00 PM']",Paulding County,110,33.9171274,-84.84750770000001,"240 CONSTITUTION BLVD, DALLAS, GA 30132","https://www.google.com/maps/search/240+CONSTITUTION+BLVD+DALLAS,+GA,+30132"
168,COURTHOUSE ANNEX,ChIJJQw_4Er_74gR6UbYjWrKAa8,"['05/18/2020 - 06/05/2020 09:00 AM - 05:00 PM', '05/30/2020 - 05/30/2020 09:00 AM - 04:00 PM']",Pierce County,113,31.3036522,-82.23396609999999,"312 NICHOLS ST, BLACKSHEAR, GA 31516","https://www.google.com/maps/search/312+NICHOLS+ST+BLACKSHEAR,+GA,+31516"
169,ADVANCE/EARLY VOTING/REGISTRAR OFFICE,ChIJ-e8b522G9IgRM629T77w2CI,"['05/18/2020 - 05/22/2020 09:00 AM - 04:00 PM', '05/26/2020 - 05/29/2020 09:00 AM - 04:00 PM', '05/30/2020 - 05/30/2020 09:00 AM - 04:00 PM', '06/01/2020 - 06/05/2020 09:00 AM - 04:00 PM']",Pike County,114,33.1030494,-84.3425145,"81 JACKSON ST, ZEBULON, GA 30295","https://www.google.com/maps/search/81+JACKSON+ST+ZEBULON,+GA,+30295"
170,CEDARTOWN ELECTIONS OFFICE,ChIJl-iVU8nBiogRk8B0210xe5o,"['05/18/2020 - 05/22/2020 09:00 AM - 05:00 PM', '05/25/2020 - 05/29/2020 09:00 AM - 05:00 PM', '05/30/2020 - 05/30/2020 09:00 AM - 04:00 PM', '06/01/2020 - 06/01/2020 09:00 AM - 05:00 PM', '06/02/2020 - 06/02/2020 09:00 AM - 07:00 PM', '06/03/2020 - 06/03/2020 09:00 AM - 05:00 PM', '06/04/2020 - 06/04/2020 09:00 AM - 07:00 PM', '06/05/2020 - 06/05/2020 09:00 AM - 05:00 PM']",Polk County,115,34.0114711,-85.2564811,"144 WEST AVE, CEDARTOWN, GA 30125","https://www.google.com/maps/search/144+WEST+AVE+CEDARTOWN,+GA,+30125"
171,ROCKMART COMMUNITY CENTER,ChIJaRY0YnPJiogR2w3luINZAOs,"['06/01/2020 - 06/04/2020 09:00 AM - 07:00 PM', '06/05/2020 - 06/05/2020 09:00 AM - 03:00 PM']",Polk County,115,34.0033548,-85.0424663,"604 GOODYEAR AVE, ROCKMART, GA 30153","https://www.google.com/maps/search/604+GOODYEAR+AVE+ROCKMART,+GA,+30153"
172,PUTNAM COUNTY ADMINISTRATION BUILDING,ChIJNd5f1RiX9ogR7cdBoRk5YyI,['05/18/2020 - 06/05/2020 08:00 AM - 05:00 PM'],Putnam County,117,33.346081,-83.3966636,"117 PUTNAM DR, EATONTON, GA 31024","https://www.google.com/maps/search/117+PUTNAM+DR+EATONTON,+GA,+31024"
173,ADVANCE/ EARLY VOTING,ChIJwQmMYeJHjYgRdpPH6TtrkNg,"['05/18/2020 - 05/22/2020 09:00 AM - 04:00 PM', '05/26/2020 - 05/30/2020 09:00 AM - 04:00 PM', '06/01/2020 - 06/05/2020 09:00 AM - 04:00 PM']",Quitman County,118,31.8818,-85.09779999999999,"46 OLD SCHOOL RD, GEORGETOWN, GA 39854","https://www.google.com/maps/search/46+OLD+SCHOOL+RD+GEORGETOWN,+GA,+39854"
174,RABUN COUNTY BOARD OF ELECTION,ChIJt5GtaL_aWIgRjUlP7P0K9Mc,"['05/18/2020 - 05/22/2020 08:30 AM - 05:00 PM', '05/26/2020 - 05/29/2020 08:30 AM - 05:00 PM', '05/30/2020 - 05/30/2020 09:00 AM - 04:00 PM', '06/01/2020 - 06/05/2020 08:30 AM - 05:00 PM']",Rabun County,119,34.8781479,-83.4009933,"18 OLD RACO HIGH DR, CLAYTON, GA 30525 - 7040","https://www.google.com/maps/search/18+OLD+RACO+HIGH+DR.+CLAYTON,+GA,+30525+-+7040"
175,COURTHOUSE-GOVT CENTER,ChIJ_3-tLZGw8ogRCj1p3UvaWGI,"['05/18/2020 - 05/22/2020 08:00 AM - 05:00 PM', '05/26/2020 - 05/29/2020 08:00 AM - 05:00 PM', '05/30/2020 - 05/30/2020 09:00 AM - 04:00 PM', '06/01/2020 - 06/05/2020 08:00 AM - 05:00 PM']",Randolph County,120,31.7667191,-84.7868807,"93 FRONT ST, CUTHBERT, GA 39840","https://www.google.com/maps/search/93+FRONT+ST+CUTHBERT,+GA,+39840"
176,1 MAIN OFFICE,ChIJn3yMG3PM-YgRgDdGSh4uLiI,"['05/18/2020 - 05/22/2020 08:30 AM - 05:00 PM', '05/26/2020 - 05/29/2020 08:30 AM - 05:00 PM', '05/30/2020 - 05/30/2020 09:00 AM - 04:00 PM', '06/01/2020 - 06/05/2020 08:30 AM - 06:00 PM']",Richmond County,121,33.4712263,-81.9617403,"535 TELFAIR STREET, AUGUSTA, GA 30901","https://www.google.com/maps/search/535+TELFAIR+STREET+AUGUSTA,+GA,+30901"
177,DIAMOND LAKES REGIONAL PARK,ChIJGWR2CGPa-YgR8jzy1_YzRxE,"['05/30/2020 - 05/30/2020 09:00 AM - 04:00 PM', '06/01/2020 - 06/05/2020 08:00 AM - 06:00 PM']",Richmond County,121,33.3532051,-82.09381890000002,"4335 WINDSOR SPRING ROAD, HEPHZIBAH, GA 30815","https://www.google.com/maps/search/4335+WINDSOR+SPRING+ROAD+HEPHZIBAH,+GA,+30815"
178,HENRY H BRIGHAM COMM.CENTER,ChIJXyZGAOjR-YgR9d-vSUopBt0,"['05/30/2020 - 05/30/2020 09:00 AM - 04:00 PM', '06/01/2020 - 06/05/2020 08:30 AM - 06:00 PM']",Richmond County,121,33.430028,-82.051737,"2463 GOLDEN CAMP ROAD, AUGUSTA, GA 30906","https://www.google.com/maps/search/2463+GOLDEN+CAMP+ROAD+AUGUSTA,+GA,+30906"
179,WARREN RD RECREATION CENTER,ChIJ8WOp2o3S-YgRvFd9qSMKwkY,"['05/30/2020 - 05/30/2020 09:00 AM - 04:00 PM', '06/01/2020 - 06/05/2020 08:30 AM - 06:00 PM']",Richmond County,121,33.5062214,-82.05769629999999,"300 WARREN ROAD, AUGUSTA, GA 30907","https://www.google.com/maps/search/300+WARREN+ROAD+AUGUSTA,+GA,+30907"
180,BOARD OF ELECTIONS ANNEX,ChIJ--PRKFWz9YgRsvNOIqHa9E8,"['05/18/2020 - 05/22/2020 08:00 AM - 04:30 PM', '05/25/2020 - 05/29/2020 08:00 AM - 04:30 PM', '05/30/2020 - 05/30/2020 09:00 AM - 04:00 PM', '06/01/2020 - 06/02/2020 08:00 AM - 04:30 PM', '06/03/2020 - 06/05/2020 08:00 AM - 07:00 PM']",Rockdale County,122,33.6525808,-84.0192209,"1400 PARKER ROAD, CONYERS, GA 30094","https://www.google.com/maps/search/1400+PARKER+ROAD,+LOBBY+C+CONYERS,+GA,+30094"
181,SCHLEY COUNTY COURT HOUSE ANNEX,ChIJYfF-Qi0A84gRI1AY3v0bpDs,"['05/18/2020 - 06/05/2020 08:00 AM - 05:00 PM', '05/30/2020 - 05/30/2020 09:00 AM - 04:00 PM']",Schley County,123,32.2387093,-84.310852,"47 N. PECAN ST, ELLAVILLE, GA 31806","https://www.google.com/maps/search/47+N.+PECAN+ST.+ELLAVILLE,+GA,+31806"
182,REGISTRAR'S OFFICE,EisyMTYgTWltcyBSZCBSTSAxMTQsIFN5bHZhbmlhLCBHQSAzMDQ2NywgVVNBIiIaIAoWChQKEgmZXJyiASn6iBHFB1zqil_TuRIGUk0gMTE0,['05/18/2020 - 06/05/2020 09:00 AM - 05:00 PM'],Screven County,124,32.7509161,-81.64517420000001,"216 MIMS RD - RM 114, SYLVANIA, GA 30467","https://www.google.com/maps/search/216+MIMS+RD+-+RM+114+SYLVANIA,+GA,+30467"
183,SEMINOLE COUNTY COURTHOUSE,ChIJb_eberwz7YgR92zyJsP6Gis,['05/18/2020 - 06/05/2020 09:00 AM - 05:00 PM'],Seminole County,125,31.04183969999999,-84.884838,"200 SOUTH KNOX AVENUE, DONALSONVILLE, GA 39845","https://www.google.com/maps/search/200+SOUTH+KNOX+AVENUE+DONALSONVILLE,+GA,+39845"
184,GRIFFIN-SPALDING ATHLETIC HALL OF FAME,Eic4NDEgTWVtb3JpYWwgRHIsIEdyaWZmaW4sIEdBIDMwMjIzLCBVU0EiGxIZChQKEgkpaRLGwGH0iBECCKOIcHOEpBDJBg,"['05/18/2020 - 06/05/2020 08:00 AM - 05:00 PM', '05/30/2020 - 05/30/2020 09:00 AM - 04:00 PM', '05/31/2020 - 05/31/2020 09:00 AM - 04:00 PM']",Spalding County,126,33.2439483,-84.25011479999999,"841 MEMORIAL DR, GRIFFIN, GA 30223","https://www.google.com/maps/search/841+MEMORIAL+DR+GRIFFIN,+GA,+30223"
185,COURTHOUSE,ChIJRwX3-8HP8ogRXOhzUbXCDUk,['05/18/2020 - 06/05/2020 08:00 AM - 05:00 PM'],Stewart County,128,32.0505732,-84.7944945,"1764 BROAD ST, LUMPKIN, GA 31815","https://www.google.com/maps/search/1764+BROAD+ST+LUMPKIN,+GA,+31815"
186,GSW GOLF AND CONFERENCE CENTER,GhIJFtnO91MGQEARm8QgsPINVcA,['04/27/2020 - 05/15/2020 09:00 AM - 05:00 PM'],Sumter County,129,32.0494375,-84.21793749999999,"1800 S. LEE ST, AMERICUS, GA 31709 - 00","https://www.google.com/maps/search/1800+S.+LEE+ST+AMERICUS,+GA,+31709+-+00"
187,TALBOT COUNTY BOARD OF ELECTIONS  ,EikxODggSmFja3NvbiBBdmUsIFRhbGJvdHRvbiwgR0EgMzE4MjcsIFVTQSIbEhkKFAoSCYsD8r_oa_OIEdAlLxRFpa3WELwB,"['05/18/2020 - 05/22/2020 09:00 AM - 04:00 PM', '05/25/2020 - 05/30/2020 09:00 AM - 04:00 PM', '06/01/2020 - 06/05/2020 09:00 AM - 04:00 PM']",Talbot County,130,32.6773398,-84.5391822,"188 JACKSON AVENUE, TALBOTTON, GA 31827","https://www.google.com/maps/search/188+JACKSON+AVENUE+TALBOTTON,+GA,+31827"
188,COURTHOUSE,ChIJi8F2HC4A94gR7lgzfRu0V7s,"['05/18/2020 - 06/05/2020 09:00 AM - 05:00 PM', '05/30/2020 - 05/30/2020 09:00 AM - 04:00 PM']",Taliaferro County,131,33.5546191,-82.89659309999999,"113 MONUMENT ST, CRAWFORDVILLE, GA 30631 - 0009","https://www.google.com/maps/search/113+MONUMENT+ST+CRAWFORDVILLE,+GA,+30631+-+0009"
189,ELECTION OFFICE,ChIJk1yXujeH-ogRsv37jtp8J28,"['05/18/2020 - 05/22/2020 08:00 AM - 05:00 PM', '05/26/2020 - 05/29/2020 08:00 AM - 05:00 PM', '05/30/2020 - 05/30/2020 09:00 AM - 04:00 PM', '06/01/2020 - 06/05/2020 08:00 AM - 05:00 PM']",Tattnall County,132,32.08619460000001,-82.1189322,"114 BRAZELL ST, REIDSVILLE, GA 30453","https://www.google.com/maps/search/114+BRAZELL+ST+REIDSVILLE,+GA,+30453"
190,OLD COLLINS GYM,ChIJlWeSWRZ8-ogRHYPUvuJQvas,['06/01/2020 - 06/05/2020 09:00 AM - 05:00 PM'],Tattnall County,132,32.1806547,-82.1134551,"509 NW WILLIAMS STREET, COLLINS, GA 30421","https://www.google.com/maps/search/509+NW+WILLIAMS+STREET+COLLINS,+GA,+30421"
191,SOUTHEASTERN TECH SCHOOL,EigyMDkgQm9sdG9uIFN0LCBHbGVubnZpbGxlLCBHQSAzMDQyNywgVVNBIhsSGQoUChIJYXqM45CN-ogRfFWKkWtaUWQQ0QE,['06/01/2020 - 06/05/2020 09:00 AM - 05:00 PM'],Tattnall County,132,31.9330654,-81.9238197,"209 BOLTON ST, GLENNVILLE, GA 30427","https://www.google.com/maps/search/209+BOLTON+ST+GLENNVILLE,+GA,+30427"
192,TELFAIR CO REGISTRAR OFFICE,Eik5MSBUZWxmYWlyIEF2ZSBCTERHIDMsIEdlb3JnaWEgMzEwNTUsIFVTQSIiGiAKFgoUChIJc9JxM1dT8IgRNAcux4TgzNcSBkJMREcgMw,"['05/18/2020 - 05/22/2020 08:00 AM - 05:00 PM', '05/26/2020 - 05/29/2020 08:00 AM - 05:00 PM', '06/01/2020 - 06/05/2020 08:00 AM - 05:00 PM']",Telfair County,134,32.0611429,-82.8984443,"91 TELFAIR AVE BLDG 3, MCRAE, GA 31055","https://www.google.com/maps/search/91+TELFAIR+AVE+BLDG+3+MCRAE,+GA,+31055"
193,DAWSON GOVERNMENTAL BUILDING,ChIJ0xcruh-O8ogREkjUxTbrJxY,"['05/18/2020 - 06/05/2020 08:30 AM - 05:00 PM', '05/30/2020 - 05/30/2020 09:00 AM - 04:00 PM']",Terrell County,135,31.7597936,-84.4366179,"955 FORRESTER DR, DAWSON, GA 39842","https://www.google.com/maps/search/955+FORRESTER+DR+DAWSON,+GA,+39842"
194,ELECTIONS OFFICE,ChIJJ1d-9XO27YgRw2jHDBiRP6w,"['05/18/2020 - 05/22/2020 08:00 AM - 05:00 PM', '05/25/2020 - 05/29/2020 08:00 AM - 05:00 PM', '05/30/2020 - 05/30/2020 09:00 AM - 04:00 PM', '06/01/2020 - 06/05/2020 08:00 AM - 05:00 PM']",Thomas County,136,30.8526813,-83.9573509,"1402 E JACKSON STREET, THOMASVILLE, GA 31792","https://www.google.com/maps/search/1402+E+JACKSON+STREET+THOMASVILLE,+GA,+31792"
195,OLD GYM,Ei0yMjIgQ2hlc251dHQgTG4gQkxERyBCLCBUaWZ0b24sIEdBIDMxNzk0LCBVU0EiJxolChsSGQoUChIJ_fzt6AIC7ogR2tuaQvtJY_QQ3gESBkJMREcgQg,"['05/18/2020 - 05/22/2020 08:00 AM - 05:00 PM', '05/25/2020 - 05/29/2020 08:00 AM - 05:00 PM', '05/30/2020 - 05/30/2020 09:00 AM - 04:00 PM', '06/01/2020 - 06/05/2020 08:00 AM - 05:00 PM']",Tift County,137,31.4540627,-83.5051379,"222 CHESNUTT AVE BLDG B, TIFTON, GA 31794","https://www.google.com/maps/search/222+CHESNUTT+AVE+BLDG+B+TIFTON,+GA,+31794"
196,TREUTLEN COUNTY ANNEX,ChIJrRXtju_s8IgRhp7I416ur_M,"['05/18/2020 - 06/05/2020 08:00 AM - 05:00 PM', '05/30/2020 - 05/30/2020 09:00 AM - 04:00 PM']",Treutlen County,140,32.3767967,-82.5925252,"650 SECOND STREET, SOPERTON, GA 30457","https://www.google.com/maps/search/650+SECOND+STREET+SOPERTON,+GA,+30457"
197,GOVERNMENT CENTER,ChIJlec9rJtWi4gRjGniSkJJclA,"['05/18/2020 - 05/22/2020 08:00 AM - 05:00 PM', '05/26/2020 - 05/29/2020 08:00 AM - 05:00 PM', '05/30/2020 - 05/30/2020 09:00 AM - 04:00 PM', '06/01/2020 - 06/05/2020 08:00 AM - 05:00 PM']",Troup County,141,33.0398694,-85.03024789999999,"100 RIDLEY AVE, LAGRANGE, GA 30240","https://www.google.com/maps/search/100+RIDLEY+AVE+LAGRANGE,+GA,+30240"
198,AMERICAN LEGION BUILDING,ChIJoSYKaOQc8ogROJlEdwOnm6E,"['05/18/2020 - 06/05/2020 08:00 AM - 05:00 PM', '05/30/2020 - 05/30/2020 09:00 AM - 04:00 PM']",Turner County,142,31.6830553,-83.6414309,"1807 US HIGHWAY 41 N, SYCAMORE, GA 31790","https://www.google.com/maps/search/1807+US+HIGHWAY+41+N+SYCAMORE,+GA,+31790"
199,TWIGGSCOUNTY COURTHOUSE,ChIJjT3QEtBF8YgRp5__pzo4SUM,"['05/18/2020 - 05/22/2020 09:00 AM - 05:00 PM', '05/26/2020 - 05/29/2020 09:00 AM - 05:00 PM', '05/30/2020 - 05/30/2020 09:00 AM - 04:00 PM', '06/01/2020 - 06/05/2020 09:00 AM - 05:00 PM']",Twiggs County,143,32.6877273,-83.3455786,"425 RAILROAD STREET NORT, JEFFERSONVILLE, GA 31044","https://www.google.com/maps/search/425+RAILROAD+STREET+NORT+JEFFERSONVILLE,+GA,+31044"
200,ABSENTEE,ChIJ9X0RL44XX4gRRy1hDprcskI,"['05/18/2020 - 05/22/2020 08:00 AM - 04:30 PM', '05/26/2020 - 05/29/2020 08:00 AM - 04:30 PM', '05/30/2020 - 05/30/2020 09:00 AM - 04:00 PM', '06/01/2020 - 06/05/2020 08:00 AM - 04:30 PM']",Union County,144,34.8785249,-83.96063819999999,"65 COURTHOUSE ST, BLAIRSVILLE, GA 30512","https://www.google.com/maps/search/65+COURTHOUSE+ST+BLAIRSVILLE,+GA,+30512"
201,CIVIC CENTER,ChIJXbAx-h5_84gR0T8_mr-4Zf4,['05/18/2020 - 06/05/2020 08:30 AM - 04:30 PM'],Upson County,145,32.8855878,-84.3095326,"101 CIVIC CENTER DRIVE, THOMASTON, GA 30286","https://www.google.com/maps/search/101+CIVIC+CENTER+DRIVE+THOMASTON,+GA,+30286"
202,WALKER COUNTY COURTHOUSE,ChIJzTXMehg-YIgRAxHPjONkxy4,"['05/18/2020 - 06/05/2020 08:30 AM - 05:00 PM', '05/30/2020 - 05/30/2020 09:00 AM - 04:00 PM']",Walker County,146,34.7043906,-85.28053270000001,"103 S. DUKE STREET, LAFAYETTE, GA 30728","https://www.google.com/maps/search/103+S.+DUKE+STREET+LAFAYETTE,+GA,+30728"
203,MERIDIAN PARK,ChIJjTxTpCfG9YgRPgLKeqaEj-E,['05/18/2020 - 06/05/2020 09:00 AM - 05:00 PM'],Walton County,147,33.82511950000001,-83.876913,"101 GENERATION BLVD, LOGANVILLE, GA 30052","https://www.google.com/maps/search/101+GENERATION+BLVD+LOGANVILLE,+GA,+30052"
204,NOWELL RECREATION CENTER,ChIJoZTMW4vQ9YgRCbRGeHyo-ZA,['05/18/2020 - 06/05/2020 09:00 AM - 05:00 PM'],Walton County,147,33.7936475,-83.7150152,"201 W SPRING ST, MONROE, GA 30655","https://www.google.com/maps/search/201+W+SPRING+ST+MONROE,+GA,+30655"
205, BOARD OF ELECTIONS AND REGISTRATION,ChIJPa2mb3Hw74gRyHCyqcZhnX4,"['04/27/2020 - 05/15/2020 08:30 AM - 05:00 PM', '05/09/2020 - 05/09/2020 09:00 AM - 04:00 PM']",Ware County,148,31.2110739,-82.3606789,"408 TEBEAU STREET, WAYCROSS, GA 31501","https://www.google.com/maps/search/408+TEBEAU+STREET+WAYCROSS,+GA,+31501"
206,COMMUNITY SERVICE BUILDING,ChIJT11UpxsO94gRkJQ7QE8P7Ns,"['05/18/2020 - 06/05/2020 08:00 AM - 05:00 PM', '05/30/2020 - 05/30/2020 09:00 AM - 04:00 PM']",Warren County,149,33.4080089,-82.66186239999999,"48 WARREN STREET, WARRENTON, GA 30828","https://www.google.com/maps/search/48+WARREN+STREET+WARRENTON,+GA,+30828"
207,WASHINGTON COUNTY BOARD OF ELECTIONS AND REGISTRATION,ChIJH2KLybcu94gRYI3y2urD4Zc,"['05/18/2020 - 05/22/2020 09:00 AM - 05:00 PM', '05/26/2020 - 05/29/2020 09:00 AM - 05:00 PM', '05/30/2020 - 05/30/2020 09:00 AM - 04:00 PM', '06/01/2020 - 06/05/2020 09:00 AM - 05:00 PM']",Washington County,150,32.9833226,-82.8125343,"117 JONES STREET, SANDERSVILLE, GA 31082","https://www.google.com/maps/search/117+JONES+STREET+SANDERSVILLE,+GA,+31082"
208,WAYNE COUNTY COURT HOUSE,ChIJo8lg1o64-ogR9fGVPDYdiQQ,['05/18/2020 - 06/05/2020 09:00 AM - 05:00 PM'],Wayne County,151,31.6040932,-81.87992550000001,"174 N BRUNSWICK ST, JESUP, GA 31546","https://www.google.com/maps/search/174+N+BRUNSWICK+ST+JESUP,+GA,+31546"
209,WEBSTER COUNTY COMMISSIONER OFFICE,ChIJq5Gd4Brm8ogRWniY9EFo1hM,['05/18/2020 - 06/05/2020 08:30 AM - 04:00 PM'],Webster County,152,32.0661624,-84.5338397,"40 CEMETERY ROAD, PRESTON, GA 31824","https://www.google.com/maps/search/40+CEMETERY+ROAD+PRESTON,+GA,+31824"
210,MAUNEY BUILDING,ChIJq9RhTqxIX4gR4a3BgTauOaY,"['05/18/2020 - 06/05/2020 08:00 AM - 05:00 PM', '05/30/2020 - 05/30/2020 09:00 AM - 04:00 PM']",White County,154,34.6173796,-83.75481769999999,"1241 HELEN HWY, CLEVELAND, GA 30528","https://www.google.com/maps/search/1241+HELEN+HWY+CLEVELAND,+GA,+30528"
211,WHITFIELD COUNTY COURTHOUSE,ChIJJVs71Tp1YIgRx1yiteJo-d0,"['05/18/2020 - 05/22/2020 08:00 AM - 05:00 PM', '05/25/2020 - 05/29/2020 08:00 AM - 05:00 PM', '05/30/2020 - 05/30/2020 09:00 AM - 04:00 PM', '06/01/2020 - 06/05/2020 08:00 AM - 05:00 PM']",Whitfield County,155,34.7724498,-84.97118859999999,"205 NORTH SELVIDGE ST, DALTON, GA 30720","https://www.google.com/maps/search/205+NORTH+SELVIDGE+ST.+DALTON,+GA,+30720"
212,ELECTIONS OFFICE,ChIJ2z2p6AQ08YgR2mjjiYVll10,"['05/18/2020 - 05/22/2020 08:00 AM - 05:00 PM', '05/25/2020 - 05/29/2020 08:00 AM - 05:00 PM', '05/30/2020 - 05/30/2020 09:09 AM - 04:00 PM', '06/01/2020 - 06/05/2020 08:00 AM - 05:00 PM']",Wilkinson County,158,32.8107241,-83.1739023,"100 BACON STREET, IRWINTON, GA 31042","https://www.google.com/maps/search/100+BACON+STREET+IRWINTON,+GA,+31042"
213,WORTH COUNTY VOTER REGISTRATION OFFICE,EisyMDEgTiBNYWluIFN0ICMxMCwgU3lsdmVzdGVyLCBHQSAzMTc5MSwgVVNBIh4aHAoWChQKEgkruS-FdwnyiBEPNzwisSh-whICMTA,"['05/18/2020 - 06/05/2020 08:00 AM - 05:00 PM', '05/30/2020 - 05/30/2020 09:00 AM - 04:00 PM']",Worth County,159,31.5279022,-83.8361158,"201 N. MAIN ST. ROOM 10, SYLVESTER, GA 31791","https://www.google.com/maps/search/201+N.+MAIN+ST.+ROOM+10.+SYLVESTER,+GA,+31791"
